school_id,school_name,address,latitude,longitude
7010057.0,가락고등학교,서울특별시 송파구 송이로 42,37.50105633,127.1164258
7130165.0,가락중학교,서울특별시 송파구 송이로 45,37.50233971,127.1189713
7041164.0,가산중학교,서울특별시 금천구 시흥대로115길 48,37.46877706,126.8944749
7130166.0,가원중학교,서울특별시 송파구 중대로10길 40-18,37.49096833,127.1229789
7011169.0,가재울고등학교,서울특별시 서대문구 수색로 100-35,37.5743637,126.9095297
7031261.0,가재울중학교,서울특별시 서대문구 수색로 100-75,37.57509835,126.9099742
BE_LiST23-0001,가톨릭대학교,서울 서초구 반포동 505,37.5000795911196,127.005246798552
BE_LiST23-0001,가톨릭대학교,서울 서초구 반포동 505,37.5849009775207,127.004770664086
BE_LiST23-0002,가톨릭대학교,서울 종로구 창경궁로 296-12(혜화동) ,37.5000795911196,127.005246798552
BE_LiST23-0002,가톨릭대학교,서울 종로구 창경궁로 296-12(혜화동) ,37.5849009775207,127.004770664086
BE_LiST23-0003,감리교신학대학교,서울 서대문구 냉천동 감리교신학대학,37.5667821636121,126.961963463309
7132123.0,강남중학교,서울특별시 동작구 대방동15길 29,37.50276263,126.9233466
7010117.0,강동고등학교,서울특별시 강동구 구천면로 572,37.54991665,127.1606683
7130167.0,강동중학교,서울특별시 강동구 풍산로 237,37.56965025,127.177836
7130168.0,강명중학교,서울특별시 강동구 상일로12길 56,37.55561278,127.1746084
7121341.0,강북중학교,서울특별시 강북구 한천로150길 67,37.6449159,127.0253734
7130268.0,강빛중학교,서울특별시 강동구 아리수로93다길 1,37.57434332,127.1707749
7010118.0,강서고등학교,서울특별시 양천구 목동중앙남로 27,37.5363155693554,126.865771125825
7010270.0,강서공업고등학교,서울특별시 강서구 방화대로47길 9,37.57603409,126.8161817
7081484.0,강신중학교,서울특별시 양천구 남부순환로 604,37.51513716,126.8381601
7010958.0,강일고등학교,서울특별시 강동구 아리수로98길 40,37.5638281,127.1779035
7130169.0,강일중학교,서울특별시 강동구 고덕로27길 12,37.55534535,127.1380086
7132124.0,강현중학교,서울특별시 동작구 상도로13라길 22,37.50311599,126.9307563
7041165.0,개봉중학교,서울특별시 구로구 고척로21나길 68,37.50352932,126.8423998
7121342.0,개운중학교,서울특별시 성북구 북악산로 935,37.59462665,127.0248421
7041166.0,개웅중학교,서울특별시 구로구 개봉로11길 81,37.4875269,126.8510711
7091420.0,개원중학교,서울특별시 강남구 영동대로 101,37.49159053,127.0719003
7010058.0,개포고등학교,서울특별시 강남구 개포로 402,37.4850426,127.0593055
7091421.0,개포중학교,서울특별시 강남구 선릉로 9,37.48044739,127.0624029
7130170.0,거원중학교,서울특별시 송파구 양산로2길 30,37.48769648,127.1465426
BE_LiST23-0004,건국대학교,서울 광진구 화양동,37.5464762611364,127.071367614735
7010119.0,건국대학교사범대학부속고등학교,서울특별시 광진구 능동로 120,37.53918267,127.0747119
7134119.0,건국대학교사범대학부속중학교,서울특별시 광진구 자양로 145-1,37.54172407,127.0815971
7010059.0,경기고등학교,서울특별시 강남구 영동대로 643,37.51756454,127.0560755
7010271.0,경기기계공업고등학교,서울특별시 노원구 공릉로 264,37.63224005,127.0749285
BE_LiST23-0005,경기대학교,서울 서대문구 경기대로9길 24 경기대학교,37.5651946923921,126.962224150341
7010272.0,경기상업고등학교,서울특별시 종로구 자하문로 136,37.58925853,126.9700571
7010060.0,경기여자고등학교,서울특별시 강남구 삼성로 29,37.4869545236322,127.06612364407
7010385.0,경기여자고등학교부설방송통신고등학교,서울특별시 강남구 삼성로 29,37.48695452,127.0661236
7031110.0,경기초등학교,서울특별시 서대문구 경기대로9길 10,37.56511029,126.9628606
7010061.0,경동고등학교,서울특별시 성북구 보문로29길 49,37.5859418116443,127.01457927632
7010386.0,경동고등학교부설방송통신고등학교,서울특별시 성북구 보문로29길 49,37.58594181,127.0145793
7010120.0,경문고등학교,서울특별시 동작구 동작대로 171,37.49341886,126.9822734
7010062.0,경복고등학교,서울특별시 종로구 자하문로28가길 9,37.585945671102,126.971510913077
7010387.0,경복고등학교부설방송통신고등학교,서울특별시 종로구 자하문로28가길 9,37.58594567,126.9715109
7010835.0,경복비즈니스고등학교,서울특별시 강서구 화곡로 379,37.55809726,126.8526703
7010122.0,경복여자고등학교,서울특별시 강서구 화곡로63길 40,37.55782183,126.8505957
7134077.0,경복초등학교,서울특별시 광진구 천호대로130길 58,37.54981386,127.0867934
7081485.0,경서중학교,서울특별시 강서구 양천로59길 31,37.56124186,126.857764
7010124.0,경성고등학교,서울특별시 마포구 성미산로 111,37.563510635781,126.919166278819
7031179.0,경성중학교,서울특별시 마포구 성미산로 111,37.56351064,126.9191663
7134120.0,경수중학교,서울특별시 성동구 뚝섬로13길 14,37.53950904,127.0592712
7010125.0,경신고등학교,서울특별시 종로구 혜화로 74,37.5922022663657,126.999531005507
7061094.0,경신중학교,서울특별시 종로구 혜화로 74,37.59220227,126.999531
7091422.0,경원중학교,서울특별시 서초구 신반포로33길 39,37.5115816,127.0090183
7010563.0,경인고등학교,서울특별시 구로구 경인로46길 31,37.49599268,126.8654289
7041167.0,경인중학교,서울특별시 구로구 경인로 301,37.49846566,126.8536725
7010698.0,경일고등학교,서울특별시 성동구 성수일로 27,37.5438083798316,127.047853796815
7134121.0,경일중학교,서울특별시 성동구 성수일로 27,37.54380838,127.0478538
7010126.0,경희고등학교,서울특별시 동대문구 경희대로 26,37.5939491407769,127.054890960564
BE_LiST23-0006,경희대학교,서울 동대문구 회기동 경희대학교,37.5907885967282,127.05537245757
7010127.0,경희여자고등학교,서울특별시 동대문구 경희대로 26,37.5939491407769,127.054890960564
7021122.0,경희여자중학교,서울특별시 동대문구 경희대로 26,37.5939491407769,127.054890960564
7021123.0,경희중학교,서울특별시 동대문구 경희대로 26,37.59394914,127.054891
7021079.0,경희초등학교,서울특별시 동대문구 경희대로 26,37.5939491407769,127.054890960564
7011312.0,계성고등학교,서울특별시 성북구 길음로 63,37.6074936,127.0201836
7091368.0,계성초등학교,서울특별시 서초구 신반포로19길 23,37.50493572,126.9966544
7130171.0,고덕중학교,서울특별시 강동구 동남로82길 94,37.56035843,127.1617619
BE_LiST23-0007,고려대학교,서울 성북구 안암동 고려대학교,37.5858189680129,127.021344106907
7010797.0,고려대학교사범대학부속고등학교,서울특별시 성북구 정릉로 161,37.6080476933587,127.002616144531
7121358.0,고려대학교사범대학부속중학교,서울특별시 성북구 정릉로 161,37.60804769,127.0026161
7011487.0,고명외식고등학교,서울특별시 성북구 북악산로 870,37.597674141541,127.019187491701
7121359.0,고명중학교,서울특별시 성북구 북악산로 870,37.59767414,127.0191875
7010063.0,고척고등학교,서울특별시 구로구 중앙로15길 162,37.50804938,126.8498691
7041168.0,고척중학교,서울특별시 구로구 중앙로3길 20,37.49974083,126.8613425
7051174.0,공릉중학교,서울특별시 노원구 노원로1길 42,37.62213595,127.0835013
7010064.0,공항고등학교,서울특별시 강서구 방화대로34길 43,37.57046109,126.8185198
7081487.0,공항중학교,서울특별시 강서구 방화대로 241,37.56217456,126.814809
7010065.0,관악고등학교,서울특별시 영등포구 영등포로6길 26,37.52179166,126.8829235
7132125.0,관악중학교,서울특별시 관악구 남부순환로237길 60,37.48125828,126.9619123
7010066.0,광남고등학교,서울특별시 광진구 아차산로70길 17-16,37.54151472,127.1012139
7134122.0,광남중학교,서울특별시 광진구 아차산로70길 17-62,37.54083041,127.1016439
7010131.0,광문고등학교,서울특별시 강동구 동남로 968,37.56046163,127.1585465
7010132.0,광성고등학교,서울특별시 마포구 신수로8길 20,37.54869756,126.9359696
7031180.0,광성중학교,서울 마포구 신수로8길 20,37.54869756,126.9359696
7010523.0,광성하늘빛학교,서울특별시 송파구 올림픽로 625,37.53738132,127.1222355
7010133.0,광신고등학교,서울특별시 관악구 광신길 141,37.4644762024804,126.925940565455
7011488.0,광신방송예술고등학교,서울특별시 관악구 광신길 141,37.4644762024804,126.925940565455
7132126.0,광신중학교,서울특별시 관악구 광신길 141,37.4644762,126.9259406
7010067.0,광양고등학교,서울특별시 광진구 자양로3가길 31,37.52937892,127.0851823
7134123.0,광양중학교,서울특별시 광진구 자양로3길 7,37.53089134,127.08617
7010134.0,광영고등학교,서울특별시 양천구 남부순환로30길 17,37.5371981027922,126.823275879439
7010135.0,광영여자고등학교,서울특별시 양천구 남부순환로30길 17,37.5371981,126.8232759
BE_LiST23-0008,광운대학교,서울특별시 노원구 월계동 447-1,37.6197033224113,127.059670655809
7011505.0,광운인공지능고등학교,서울특별시 노원구 광운로1길 24,37.6192431974844,127.056540751938
7051175.0,광운중학교,서울특별시 노원구 광운로1길 24,37.6192432,127.0565408
7121335.0,광운초등학교,서울특별시 성북구 한천로 694,37.61897514,127.055244
7134124.0,광장중학교,서울특별시 광진구 광장로1길 1,37.54717752,127.1019276
7134125.0,광진중학교,서울특별시 광진구 뚝섬로64길 45,37.53221959,127.0901621
7134126.0,광희중학교,서울특별시 성동구 독서당로62길 46,37.55115453,127.03398
7010575.0,교남학교,서울특별시 강서구 까치산로22길 38,37.54797109,126.852349
7010068.0,구로고등학교,서울특별시 구로구 가마산로27길 45,37.49884008,126.8903092
7041169.0,구로중학교,서울특별시 구로구 구로중앙로 48,37.49485972,126.8910999
7091423.0,구룡중학교,서울특별시 강남구 선릉로 103,37.48621294,127.0565075
7031181.0,구산중학교,서울특별시 은평구 갈현로15길 20-23,37.60987202,126.9094887
7011111.0,구암고등학교,서울특별시 관악구 성현로 57,37.49255401,126.9502192
7132127.0,구암중학교,서울특별시 관악구 성현로 53,37.49276624,126.9490357
7134127.0,구의중학교,서울특별시 광진구 광나루로30길 80,37.5428503,127.0788404
7010069.0,구일고등학교,서울특별시 구로구 구일로 90-51,37.49350529,126.8746185
7041170.0,구일중학교,서울특별시 구로구 구일로 90-133,37.49530091,126.8737702
7010827.0,구현고등학교,서울특별시 구로구 경인로53가길 17,37.50228322,126.8744182
1371661.0,국립국악고등학교,서울특별시 강남구 개포로22길 65,37.4762397420077,127.051213825746
1371662.0,국립국악중학교,서울특별시 강남구 개포로22길 65,37.47623974,127.0512138
1371663.0,국립전통예술고등학교,서울특별시 금천구 시흥대로38길 62,37.4463710473917,126.906462134788
1371664.0,국립전통예술중학교,서울특별시 금천구 시흥대로38길 62,37.44637105,126.9064621
BE_LiST23-0009,국민대학교,서울 성북구 정릉3동 국민대학교,37.6089294464123,127.004190410838
7132128.0,국사봉중학교,서울특별시 동작구 양녕로20길 20,37.49353263,126.9440557
BE_LiST23-0010,국제예술대학,서울 강남구 논현동 79,37.5169057779708,127.031003951379
BE_LiST23-0011,그리스도대학교,서울 강서구 화곡6동 그리스도대학교,37.551543060786,126.850958505315
7021080.0,금성초등학교,서울특별시 중랑구 신내로21길 55,37.61531513,127.0898585
7010071.0,금옥여자고등학교,서울특별시 양천구 신정로 213,37.5109653172242,126.843971681779
7081488.0,금옥중학교,서울특별시 양천구 신정로 213,37.51096532,126.8439717
7010072.0,금천고등학교,서울특별시 금천구 시흥대로38길 26,37.44489502,126.9049018
7011317.0,금천문화예술정보학교,서울특별시 금천구 남부순환로126길 25,37.47926857,126.9072194
7011319.0,금호고등학교,서울특별시 성동구 금호로 118,37.5536215,127.0234338
7061095.0,금호여자중학교,서울특별시 중구 청구로 6,37.5580382,127.0204612
7121357.0,길음중학교,서울특별시 성북구 길음로 144,37.61403346,127.0177524
7011096.0,꿈타래학교,서울특별시 관악구 신림로 67,37.47050417,126.9419406
7041171.0,난곡중학교,서울특별시 금천구 문성로 67,37.47804558,126.9107916
7132129.0,난우중학교,서울특별시 관악구 난곡로16길 32,37.46680396,126.9228283
7010136.0,남강고등학교,서울특별시 관악구 난곡로34길 80,37.4713756726623,126.924909105757
7132130.0,남강중학교,서울특별시 관악구 난곡로34길 80,37.47137567,126.9249091
7121360.0,남대문중학교,서울특별시 성북구 한천로 660-30,37.61853601,127.0559811
7132131.0,남서울중학교,서울특별시 관악구 남부순환로172길 97,37.48213625,126.9210371
7132132.0,남성중학교,서울특별시 동작구 남부순환로269길 166,37.47900822,126.9724141
7091486.0,내곡중학교,서울특별시 서초구 청계산로7길 9-20,37.45200325,127.0544446
7051176.0,노곡중학교,서울특별시 도봉구 노해로70길 95,37.64880251,127.0537437
7010564.0,노원고등학교,서울특별시 노원구 노원로 586,37.66180319,127.0540195
7051177.0,노원중학교,서울특별시 노원구 동일로213길 26,37.64936114,127.059692
7051178.0,노일중학교,서울특별시 노원구 동일로231길 24,37.67228886,127.0538897
7051179.0,녹천중학교,서울특별시 노원구 월계로 376,37.63107911,127.0617422
7011302.0,누리학교,서울특별시 동작구 상도로 53,37.49997351,126.9265216
7010589.0,누원고등학교,서울특별시 도봉구 마들로 849,37.68556896,127.0499327
7010459.0,다니엘학교,서울특별시 서초구 헌릉로468길 21-16,37.4601639,127.0923191
7011489.0,단국대학교부속소프트웨어고등학교,서울특별시 강남구 도곡로64길 21,37.4956174948977,127.057768228297
7010137.0,단국대학교사범대학부속고등학교,서울특별시 강남구 도곡로64길 21,37.4956174948977,127.057768228297
7091449.0,단국대학교사범대학부속중학교,서울특별시 강남구 도곡로64길 21,37.49561749,127.0577682
7010073.0,당곡고등학교,서울특별시 관악구 봉천로21길 108,37.49176034,126.9342464
7132133.0,당곡중학교,서울특별시 관악구 봉천로13길 101,37.4923589,126.9326777
7041172.0,당산서중학교,서울특별시 영등포구 당산로41길 12,37.53248394,126.8988251
7041173.0,당산중학교,서울특별시 영등포구 버드나루로 160,37.53203308,126.907614
7011507.0,대경생활과학고등학교,서울특별시 중구 매봉18길 111,37.5563732600255,127.016979156363
7061096.0,대경중학교,서울특별시 중구 매봉18길 111,37.55637326,127.0169792
7010138.0,대광고등학교,서울특별시 동대문구 안암로 6,37.5779546698355,127.025323479801
7021124.0,대광중학교,서울특별시 동대문구 안암로 6,37.57795467,127.0253235
7121336.0,대광초등학교,서울특별시 성북구 안암로 5,37.57915104,127.0234459
7010833.0,대동세무고등학교,서울특별시 종로구 계동길 84-10,37.58158273,126.9879513
7041174.0,대림중학교,서울특별시 영등포구 시흥대로185길 6,37.49213862,126.906943
7091424.0,대명중학교,서울특별시 강남구 역삼로87길 26,37.50631894,127.0607781
7132134.0,대방중학교,서울특별시 동작구 여의대방로10길 24,37.49543678,126.9130162
7010139.0,대성고등학교,서울특별시 은평구 갈현로29길 51-24,37.6231422778381,126.909790703133
7031182.0,대성중학교,서울특별시 은평구 갈현로29길 51-24,37.62314228,126.9097907
7010140.0,대신고등학교,서울특별시 종로구 사직로 9,37.573123769216,126.96125454884
7061097.0,대신중학교,서울특별시 종로구 사직로 9,37.57312377,126.9612545
7010074.0,대영고등학교,서울특별시 영등포구 도림로86길 16,37.50365306,126.9055181
7041175.0,대영중학교,서울특별시 영등포구 도림로80가길 14,37.50343784,126.905208
7091425.0,대왕중학교,서울특별시 강남구 광평로20길 7,37.48346033,127.0873381
7010141.0,대원고등학교,서울특별시 광진구 용마산로22길 26,37.5624502219725,127.089376716312
7134130.0,대원국제중학교,서울특별시 광진구 용마산로22길 26,37.56245022,127.0893767
7010142.0,대원여자고등학교,서울특별시 광진구 용마산로22길 26,37.5624502219725,127.089376716312
7010143.0,대원외국어고등학교,서울특별시 광진구 용마산로22길 26,37.5624502219725,127.089376716312
7010144.0,대일고등학교,서울특별시 강서구 등촌로 105,37.5394887,126.8634031
7011186.0,대일관광고등학교,서울특별시 양천구 신정이펜1로 11,37.51141377,126.8349067
7010145.0,대일외국어고등학교,서울특별시 성북구 서경로 116,37.61330459,127.014176
7010146.0,대진고등학교,서울특별시 노원구 공릉로62가길 47,37.63780685,127.07609
7010740.0,대진디자인고등학교,서울특별시 강남구 광평로39길 93,37.49042815,127.0959793
7010147.0,대진여자고등학교,서울특별시 노원구 공릉로 438,37.64612482,127.0671966
7091426.0,대청중학교,서울특별시 강남구 양재천로 321,37.49034855,127.0580335
7091427.0,대치중학교,서울특별시 강남구 남부순환로378길 39,37.48457751,127.0470652
7031183.0,덕산중학교,서울특별시 은평구 가좌로 400,37.6022574,126.9046771
7010148.0,덕성여자고등학교,서울특별시 종로구 율곡로3길 50,37.57776082,126.9835581
BE_LiST23-0012,덕성여자대학교,서울특별시 도봉구 삼양로 144길 33,37.6524704146763,127.015834944956
7061098.0,덕성여자중학교,서울특별시 종로구 율곡로3길 49,37.57778598,126.9819092
7010808.0,덕수고등학교,서울특별시 송파구 위례북로 10,37.48559162,127.1470596
7061099.0,덕수중학교,서울 중구 마른내로9길 10,37.56557957,126.9969973
7010149.0,덕원여자고등학교,서울특별시 강서구 강서로45길 91-44,37.5486225773288,126.829024518952
7010150.0,덕원예술고등학교,서울특별시 강서구 강서로45길 91-44,37.5486225773288,126.829024518952
7081516.0,덕원중학교,서울특별시 강서구 강서로45길 91-44,37.54862258,126.8290245
7010317.0,덕일전자공업고등학교,서울특별시 구로구 서해안로21길 5-12,37.49053652,126.8371345
7011469.0,덜위치칼리지서울영국학교,서울특별시 서초구 신반포로15길 6,37.50429038,126.9953408
7091428.0,도곡중학교,서울특별시 강남구 언주로57길 31,37.49229373,127.0447856
7051180.0,도봉중학교,서울특별시 도봉구 마들로 671,37.67088384,127.0458717
7011318.0,도선고등학교,서울특별시 성동구 마장로 156,37.56684395,127.0269957
7010560.0,독산고등학교,서울특별시 금천구 문성로 64,37.47621872,126.9109396
7041099.0,동광초등학교,서울특별시 금천구 탑골로10길 45,37.4519206711218,126.915824008297
7121361.0,동구여자중학교,서울특별시 성북구 성북로8길 71,37.59410659,127.0082155
BE_LiST23-0013,동국대학교,서울 중구 필동3가 동국대학교,37.5584990846546,126.997003047238
7010151.0,동국대학교사범대학부속고등학교,서울특별시 동대문구 장안벚꽃로 201,37.5780471818476,127.075133018965
7010746.0,동국대학교사범대학부속여자고등학교,서울특별시 광진구 광나루로36길 47,37.5419293578309,127.086973061678
7134128.0,동국대학교사범대학부속여자중학교,서울특별시 광진구 광나루로36길 47,37.54192936,127.0869731
7021125.0,동국대학교사범대학부속중학교,서울특별시 동대문구 장안벚꽃로 201,37.57804718,127.075133
7021126.0,동대문중학교,서울특별시 동대문구 사가정로 59,37.57452207,127.0519943
7010152.0,동덕여자고등학교,서울특별시 서초구 효령로2길 123-5,37.4758460567445,126.992615816174
BE_LiST23-0014,동덕여자대학교,서울 성북구 하월곡2동 동덕여자대학교,37.5893588153919,127.016702905651
7091450.0,동덕여자중학교,서울특별시 서초구 효령로2길 123-5,37.47584606,126.9926158
7031184.0,동도중학교,서울특별시 마포구 백범로 139,37.54667508,126.948479
7134129.0,동마중학교,서울특별시 성동구 마조로11길 18,37.56280251,127.0403512
7011490.0,동명생활경영고등학교,서울특별시 은평구 통일로 793,37.61441879,126.9228204
7010153.0,동명여자고등학교,서울특별시 은평구 통일로 793,37.6144187859471,126.92282044301
7031185.0,동명여자중학교,서울특별시 서대문구 독립문로 49,37.56861542,126.9622529
7010154.0,동북고등학교,서울특별시 강동구 강동대로 305,37.5202406144077,127.139450654266
7130172.0,동북중학교,서울특별시 강동구 강동대로 305,37.52024061,127.1394507
7051109.0,동북초등학교,서울특별시 도봉구 시루봉로 53,37.6562750160952,127.026703057445
7061054.0,동산초등학교,서울특별시 중구 매봉18길 109,37.55620463,127.0167254
7010155.0,동성고등학교,서울특별시 종로구 대학로 156,37.5849699592551,127.003097645534
7061100.0,동성중학교,서울특별시 종로구 대학로 156,37.58496996,127.0030976
7130173.0,동신중학교,서울특별시 강동구 진황도로 72,37.53676952,127.1343666
7010965.0,동양고등학교,서울특별시 강서구 허준로 50,37.56903024,126.8468888
BE_LiST23-0015,동양미래대학교,서울시 구로구 경인로 445 동양미래대학교 (고척동 62-160),37.4999957879198,126.868169656727
7132135.0,동양중학교,서울특별시 동작구 흑석로9길 94,37.51022314,126.9574775
7021127.0,동원중학교,서울특별시 중랑구 양원역로 32,37.60382264,127.1094981
7010156.0,동일여자고등학교,서울특별시 금천구 탑골로10길 45,37.4519206711218,126.915824008297
7041176.0,동일중학교,서울특별시 금천구 탑골로10길 45,37.45192067,126.915824
7010075.0,동작고등학교,서울특별시 동작구 솔밭로 51,37.48260194,126.9650863
7132136.0,동작중학교,서울특별시 동작구 동작대로39가길 83,37.49546195,126.9778016
7010076.0,둔촌고등학교,서울특별시 강동구 명일로 140,37.53143258,127.1438087
7130174.0,둔촌중학교,서울특별시 강동구 진황도로61길 25-30,37.53083609,127.1463317
7081489.0,등명중학교,서울특별시 강서구 공항대로39길 39,37.56019335,126.8433041
7081490.0,등원중학교,서울특별시 강서구 화곡로65길 50,37.55973402,126.8518154
7010700.0,등촌고등학교,서울특별시 강서구 공항대로39길 115,37.56294522,126.8450461
7081517.0,등촌중학교,서울특별시 강서구 공항대로 484-12,37.55248221,126.8592148
BE_LiST23-0016,디지털서울문화예술대학교,서울시 서대문구 통일로 37길 60 (홍제동 318-18),37.5854437357557,126.943879163212
7010908.0,리라아트고등학교,서울특별시 중구 소파로2길,37.55766227,126.9877785
7061055.0,리라초등학교,서울특별시 중구 소파로2길 7,37.5578197,126.9879807
7081515.0,마곡중학교,서울특별시 강서구 마곡중앙5로 58,37.5680344,126.821326
7081540.0,마곡하늬중학교,서울특별시 강서구 마곡서1로 16,37.5581679,126.8209848
7134131.0,마장중학교,서울특별시 성동구 마장로35나길 31,37.56833887,127.0416051
7010157.0,마포고등학교,서울특별시 강서구 화곡로 403,37.5600277060889,126.85286487714
7081518.0,마포중학교,서울특별시 강서구 화곡로 403,37.56002771,126.8528649
7121337.0,매원초등학교,서울특별시 성북구 북악산로 870,37.597674141541,127.019187491701
7010077.0,면목고등학교,서울특별시 중랑구 용마산로72길 36-14,37.58466341,127.0972706
7021128.0,면목중학교,서울특별시 중랑구 용마산로70길 37,37.58301146,127.0965893
7010158.0,명덕고등학교,서울특별시 강서구 강서로47길 34-10,37.5538694849081,126.8339773378
7010159.0,명덕여자고등학교,서울특별시 강서구 강서로47길 34-10,37.5538694849081,126.8339773378
7081519.0,명덕여자중학교,서울특별시 강서구 강서로47길 34-10,37.55386948,126.8339773
7010160.0,명덕외국어고등학교,서울특별시 강서구 강서로47길 34-10,37.5538694849081,126.8339773378
7010078.0,명일여자고등학교,서울특별시 강동구 명일로 350,37.54977633,127.1495815
7130175.0,명일중학교,서울특별시 강동구 양재대로156길 57,37.55765635,127.1472985
7010163.0,명지고등학교,서울특별시 서대문구 명지2길 56,37.5849113531243,126.927090249447
BE_LiST23-0017,명지대학교 인문캠퍼스,서울 서대문구 남가좌동 50-3,37.5802275436823,126.923120664028
BE_LiST23-0018,명지전문대학,서울 서대문구 가좌로 134 명지전문대학 ,37.5852831941405,126.925647822893
7031186.0,명지중학교,서울특별시 서대문구 명지2길 56,37.58491135,126.9270902
7031111.0,명지초등학교,서울특별시 서대문구 명지2길 32-20,37.58362994,126.9282315
7010744.0,목동고등학교,서울특별시 양천구 목동동로2길 68,37.5092159752312,126.86019842592
7081491.0,목동중학교,서울특별시 양천구 목동동로 172,37.5209572,126.8714434
7081492.0,목운중학교,서울특별시 양천구 목동동로 235,37.52700952,126.8730442
7081493.0,목일중학교,서울특별시 양천구 목동동로8길 70,37.51350849,126.8742688
7010079.0,무학여자고등학교,서울특별시 성동구 고산자로 197,37.55762633,127.0338809
7134132.0,무학중학교,서울특별시 성동구 행당로 120,37.55770119,127.0319922
7041177.0,문래중학교,서울특별시 영등포구 선유서로13길 6,37.52036241,126.8846709
7041178.0,문성중학교,서울특별시 금천구 독산로102길 78,37.4754682,126.9084938
7010166.0,문일고등학교,서울특별시 금천구 시흥대로47길 45,37.4489152569278,126.898720653088
7041179.0,문일중학교,서울특별시 금천구 시흥대로47길 45,37.44891526,126.8987207
7010701.0,문정고등학교,서울특별시 송파구 송이로34길 62,37.4851785,127.1266921
7130176.0,문정중학교,서울특별시 송파구 문정로 73,37.488392,127.1302863
7132137.0,문창중학교,서울특별시 동작구 여의대방로22나길 40,37.49586094,126.9224055
7010959.0,문현고등학교,서울특별시 송파구 충민로 115,37.48131355,127.1287623
7130177.0,문현중학교,서울특별시 송파구 충민로 99,37.4805588,127.1282441
7010591.0,미래산업과학고등학교,서울특별시 노원구 덕릉로82길 54,37.65877948,127.0784407
7011569.0,미림마이스터고등학교,서울특별시 관악구 호암로 546,37.4661018,126.9319279
7010167.0,미림여자고등학교,서울특별시 관악구 호암로 546,37.4661018035835,126.931927855676
7132138.0,미성중학교,서울특별시 관악구 문성로16길 40,37.47538281,126.9120889
7010460.0,밀알학교,서울특별시 강남구 일원로 90,37.48578186,127.0820718
7010080.0,반포고등학교,서울특별시 서초구 고무래로 71,37.50270273,127.0165107
7091429.0,반포중학교,서울특별시 서초구 신반포로 67,37.50305237,126.991604
7091430.0,방배중학교,서울특별시 서초구 동광로 144,37.49486827,126.997827
7010590.0,방산고등학교,서울특별시 송파구 오금로27길 18,37.50839952,127.1204696
7130178.0,방산중학교,서울특별시 송파구 오금로29길 31,37.50934391,127.1215678
7081494.0,방원중학교,서울특별시 강서구 금낭화로 268,37.5757386,126.8082204
7130179.0,방이중학교,서울특별시 송파구 오금로11길 64,37.5149508,127.1133737
7051181.0,방학중학교,서울특별시 도봉구 시루봉로 188,37.66545122,127.030859
7081495.0,방화중학교,서울특별시 강서구 개화동로27길 9,37.56433471,126.8071069
7010168.0,배명고등학교,서울특별시 송파구 삼학사로 11,37.4976894981876,127.095811765574
7130180.0,배명중학교,서울특별시 송파구 삼학사로 11,37.4976895,127.0958118
7010169.0,배문고등학교,서울특별시 용산구 효창원로 258,37.5499187190496,126.963904100329
7061101.0,배문중학교,서울특별시 용산구 효창원로 258,37.54991872,126.9639041
7010170.0,배재고등학교,서울특별시 강동구 고덕로 227,37.5550559824557,127.150160525237
7130181.0,배재중학교,서울특별시 강동구 고덕로 227,37.55505598,127.1501605
7010171.0,배화여자고등학교,서울특별시 종로구 필운대로1길 34,37.5795440101952,126.967291871532
BE_LiST23-0019,배화여자대학교,서울 종로구 필운대로 1길 34 배화여자대학교,37.5795440101952,126.967291871532
7061102.0,배화여자중학교,서울특별시 종로구 필운대로1길 34,37.57954401,126.9672919
BE_LiST23-0020,백석예술대학교,서울 서초구 방배로9길 23 백석예술대학교,37.4803713866046,126.996896954333
7081496.0,백석중학교,서울특별시 강서구 등촌로51나길 35,37.54829091,126.8589539
7010172.0,백암고등학교,서울특별시 양천구 신정로13길 16,37.51225336,126.8444952
7051182.0,백운중학교,서울특별시 도봉구 도봉로129길 50,37.65628068,127.0356223
7121344.0,번동중학교,서울특별시 강북구 오현로35길 87,37.63245569,127.0362064
7010173.0,보성고등학교,서울특별시 송파구 양재대로 1278,37.5200898870034,127.135729296295
7010174.0,보성여자고등학교,서울특별시 용산구 신흥로3가길 66,37.5430815444968,126.984284175086
7061103.0,보성여자중학교,서울특별시 용산구 신흥로3가길 66,37.54308154,126.9842842
7130182.0,보성중학교,서울특별시 송파구 양재대로 1278,37.52008989,127.1357293
7010813.0,보인고등학교,서울특별시 송파구 오금로49길 18,37.4975692004431,127.139517839227
7130183.0,보인중학교,서울특별시 송파구 오금로49길 18,37.4975692,127.1395178
7132139.0,봉림중학교,서울특별시 관악구 장군봉길 72,37.48119817,126.9377027
7081520.0,봉영여자중학교,서울특별시 양천구 목동동로2길 68,37.50921598,126.8601984
7132140.0,봉원중학교,서울특별시 관악구 관악로24가길 15,37.48410274,126.9588909
7091431.0,봉은중학교,서울특별시 강남구 영동대로128길 59,37.51897667,127.0623894
7021129.0,봉화중학교,서울특별시 중랑구 망우로70길 89,37.59582753,127.1043156
7051183.0,북서울중학교,서울특별시 도봉구 도봉로169가길 33,37.68157042,127.0425735
7121345.0,북악중학교,서울특별시 성북구 정릉로12길 41,37.60700905,127.0016095
7031187.0,불광중학교,서울특별시 은평구 불광로 180,37.62317982,126.9323892
7010736.0,불암고등학교,서울특별시 노원구 중계로 155,37.64915853,127.0803058
7051184.0,불암중학교,서울특별시 노원구 한글비석로5길 45,37.64546974,127.0732172
7132141.0,사당중학교,서울특별시 동작구 사당로9가길 58,37.48776119,126.9685407
BE_LiST23-0021,사이버한국외국어대학교,서울 동대문구 이문동 한국외국어대학교,37.6004055110663,127.066373060068
7010985.0,삼각산고등학교,서울특별시 강북구 삼양로19길 40,37.61628573,127.0201079
7121346.0,삼각산중학교,서울특별시 강북구 삼양로19길 141,37.61604124,127.0143427
7121347.0,삼선중학교,서울특별시 성북구 동소문로3길 69,37.59174439,127.0078729
7010081.0,삼성고등학교,서울특별시 관악구 신림로 41,37.4691077,126.9440108
7132142.0,삼성중학교,서울특별시 관악구 신림로3가길 39-24,37.4676059,126.9425132
BE_LiST23-0022,삼육대학교,서울시 노원구 화랑로 815(공릉2동 26-21),37.643357369067,127.108850343184
BE_LiST23-0023,삼육보건대학교,서울 동대문구 휘경2동,37.5901076994928,127.068614843098
7081497.0,삼정중학교,서울특별시 강서구 금낭화로 210,37.58129504,126.8102955
7051185.0,상경중학교,서울특별시 노원구 동일로227길 61,37.66714877,127.0537053
7010082.0,상계고등학교,서울특별시 노원구 노해로 432,37.65272468,127.0554534
7051186.0,상계제일중학교,서울특별시 노원구 덕릉로86길 29-15,37.6610756,127.0780785
7051187.0,상계중학교,서울특별시 노원구 노원로 398,37.6526541,127.0685525
7132143.0,상도중학교,서울특별시 동작구 사당로2가길 72,37.4909219,126.9614756
7010593.0,상명고등학교,서울특별시 노원구 덕릉로 553,37.649540794927,127.067701313205
BE_LiST23-0024,상명대학교,서울 종로구 홍지동 상명대학교,37.6007910021228,126.956587544473
7010178.0,상명대학교사범대학부속여자고등학교,서울특별시 종로구 홍지문2길 20,37.604108905882,126.955159496571
7061104.0,상명대학교사범대학부속여자중학교,서울특별시 종로구 홍지문2길 20,37.60410891,126.9551595
7061056.0,상명대학교사범대학부속초등학교,서울특별시 종로구 홍지문2길 1,37.60074851,126.9564255
7051188.0,상명중학교,서울특별시 노원구 덕릉로 553,37.64954079,127.0677013
7051110.0,상명초등학교,서울특별시 노원구 덕릉로 541,37.64872762,127.0669845
7010179.0,상문고등학교,서울특별시 서초구 명달로 45,37.47975543,127.0039168
7021130.0,상봉중학교,서울특별시 중랑구 상봉중앙로8나길 28,37.60152799,127.0901246
7031188.0,상신중학교,서울특별시 은평구 증산로15길 61,37.58978547,126.9064249
7010806.0,상암고등학교,서울특별시 마포구 월드컵북로 445,37.58134141,126.8833945
7031189.0,상암중학교,서울특별시 마포구 상암산로1길 26,37.57905692,126.8875508
7051189.0,상원중학교,서울특별시 노원구 수락산로 182,37.67172498,127.0597836
7010916.0,상일미디어고등학교,서울특별시 강동구 천호대로219길 61,37.5485874781342,127.170823536325
7010181.0,상일여자고등학교,서울특별시 강동구 천호대로219길 61,37.5485874781342,127.170823536325
7130275.0,상일중학교,서울특별시 강동구 천호대로219길 61,37.54858748,127.1708235
7132144.0,상현중학교,서울특별시 동작구 사당로2길 2-19,37.49415578,126.9606077
BE_LiST23-0025,서강대학교,서울 마포구 신수동 서강대학교,37.5470206619263,126.935226865858
BE_LiST23-0026,서경대학교,서울 성북구 정릉4동 서경대학교,37.6133765955269,127.00699953542
7010182.0,서라벌고등학교,서울특별시 노원구 한글비석로5길 18,37.64525653,127.0758406
7121362.0,서라벌중학교,서울특별시 강북구 삼양로155길 37-9,37.65698403,127.0114883
7010183.0,서문여자고등학교,서울특별시 서초구 동광로12길 84,37.4889197255873,126.984545759343
7091451.0,서문여자중학교,서울특별시 서초구 동광로12길 84,37.48891973,126.9845458
7010721.0,서서울생활과학고등학교,서울특별시 구로구 오리로 1355-10,37.50382919,126.82826
7031190.0,서연중학교,서울특별시 서대문구 연희로11마길 9-6,37.56821623,126.9271377
7091432.0,서운중학교,서울특별시 서초구 서운로 115,37.49394851,127.0245382
7081418.0,서울가곡초등학교,서울특별시 강서구 공항대로36길 74,37.55570761,126.8361031
7130101.0,서울가동초등학교,서울특별시 송파구 중대로20길 47,37.49725593,127.1297903
7130102.0,서울가락초등학교,서울특별시 송파구 송파대로37길 45,37.49987464,127.1072149
7041100.0,서울가산초등학교,서울특별시 금천구 남부순환로 1304-11,37.47814772,126.896184
7081419.0,서울가양초등학교,서울 강서구 허준로 186,37.56221719,126.8585216
7130103.0,서울가원초등학교,서울특별시 송파구 중대로4길 8,37.48944278,127.1110287
7051111.0,서울가인초등학교,서울특별시 도봉구 도봉로136다길 4,37.6594678,127.0429509
7031278.0,서울가재울초등학교,서울특별시 서대문구 모래내로15길 61,37.57376442,126.918388
7130104.0,서울가주초등학교,서울특별시 송파구 오금로40길 37,37.49656722,127.1292804
7081420.0,서울갈산초등학교,서울특별시 양천구 목동로 31,37.51237156,126.8702299
7031112.0,서울갈현초등학교,서울특별시 은평구 연서로29길 31,37.61977964,126.9166834
7132080.0,서울강남초등학교,서울특별시 동작구 강남초등길 15,37.50620445,126.9535672
7130105.0,서울강덕초등학교,서울특별시 강동구 동남로82길 94-54,37.55954748,127.1604836
7130106.0,서울강동초등학교,서울특별시 강동구 상암로14길 77,37.5463638,127.1301872
7130107.0,서울강명초등학교,서울특별시 강동구 상일로 74-1,37.55470604,127.1733745
7130266.0,서울강빛초등학교,서울특별시 강동구 아리수로93다길 1,37.5743433210453,127.170774922577
7081421.0,서울강서초등학교,서울특별시 양천구 오목로 31,37.52241272,126.8409879
7130251.0,서울강솔초등학교,서울특별시 강동구 고덕로97길 80,37.56186962,127.1802671
7081422.0,서울강신초등학교,서울특별시 양천구 월정로 280,37.54209971,126.8295837
7081423.0,서울강월초등학교,서울특별시 양천구 신월로 97,37.51634172,126.8334319
7130108.0,서울강일초등학교,서울특별시 강동구 아리수로98길 24,37.56525568,127.1772125
7130109.0,서울개롱초등학교,서울특별시 송파구 문정로 211,37.49736261,127.1398881
7041101.0,서울개명초등학교,서울특별시 구로구 개봉로1다길 16-9,37.48305638,126.8509407
7041102.0,서울개봉초등학교,서울특별시 구로구 개봉로16길 30-11,37.48952806,126.8579722
7121298.0,서울개운초등학교,서울특별시 성북구 정릉로48길 52,37.60181095,127.0274045
7041103.0,서울개웅초등학교,서울특별시 구로구 개봉로11길 98,37.48857132,126.8499823
7091369.0,서울개원초등학교,서울특별시 강남구 선릉로 29,37.48169861,127.0594505
7091370.0,서울개일초등학교,서울특별시 강남구 개포로 401,37.48623538,127.0577909
7091371.0,서울개포초등학교,서울특별시 강남구 삼성로4길 30,37.48633492,127.07031
7091496.0,서울개현초등학교,서울특별시 강남구 선릉로 15,37.48102621,127.0620426
7081424.0,서울개화초등학교,서울특별시 강서구 양천로 11,37.57392624,126.8046942
7130110.0,서울거여초등학교,서울특별시 송파구 마천로25길 18,37.50502612,127.1409468
7130111.0,서울거원초등학교,서울특별시 송파구 양산로2길 26,37.48763851,127.144816
7134078.0,서울경동초등학교,서울특별시 성동구 성수일로 34,37.5438253,127.050074
7134079.0,서울경수초등학교,서울특별시 성동구 뚝섬로13길 22,37.54043667,127.0580668
7010561.0,서울경운학교,서울특별시 종로구 삼일대로 454,37.57506182,126.9874209
7081425.0,서울경인초등학교,서울특별시 양천구 안양천로 1009,37.53287102,126.8856957
7134080.0,서울경일초등학교,서울특별시 성동구 뚝섬로 332,37.5409419,127.0466051
7081426.0,서울계남초등학교,서울특별시 양천구 목동동로2길 54,37.51016776,126.8600159
7051112.0,서울계상초등학교,서울특별시 노원구 한글비석로41가길 24,37.66244641,127.0688803
7130112.0,서울고덕초등학교,서울특별시 강동구 아리수로82길 42,37.56129422,127.166097
7010083.0,서울고등학교,서울특별시 서초구 효령로 197,37.48429306,127.0049019
7130113.0,서울고명초등학교,서울특별시 강동구 고덕로46길 53,37.55297253,127.1474362
7041104.0,서울고산초등학교,서울특별시 구로구 중앙로 6,37.49932523,126.8653501
7041105.0,서울고원초등학교,서울특별시 구로구 경인로46길 13,37.49764543,126.8657713
7031113.0,서울고은초등학교,서울특별시 서대문구 모래내로 441,37.58500184,126.9439749
7130114.0,서울고일초등학교,서울특별시 강동구 구천면로93길 20,37.55154262,127.1694101
7041106.0,서울고척초등학교,서울특별시 구로구 경서로 31,37.50099779,126.8568624
7130264.0,서울고현초등학교,서울특별시 강동구 상일로11길 110,37.55380394,127.1660501
7031114.0,서울공덕초등학교,서울특별시 마포구 만리재옛길 13,37.54580335,126.9548231
7051113.0,서울공릉초등학교,서울특별시 노원구 동일로173길 12,37.61861201,127.0746143
7010278.0,서울공업고등학교,서울특별시 동작구 대방동1길 46,37.50190126,126.922363
7010906.0,서울공연예술고등학교,서울특별시 구로구 오리로22나길 16-26,37.49993066,126.8326087
7051114.0,서울공연초등학교,서울특별시 노원구 동일로192가길 16,37.62719482,127.0740308
7081427.0,서울공진초등학교,서울특별시 강서구 마곡서로 33,37.55783088,126.8228061
7081428.0,서울공항초등학교,서울특별시 강서구 마곡서1로 68,37.56311072,126.8213169
7010084.0,서울과학고등학교,서울특별시 종로구 혜화로 63,37.59154805,126.9984363
BE_LiST23-0027,서울과학기술대학교,서울 노원구 공릉로 232 (공릉동 172),37.6330789279387,127.076794742851
BE_LiST23-0027,서울과학기술대학교,서울 노원구 공릉로 232 (공릉동 172),37.6330789279387,127.076794742851
BE_LiST23-0028,서울과학기술대학교,서울시 노원구 공릉로 232 서울과학기술대학교,37.6330789279387,127.076794742851
BE_LiST23-0028,서울과학기술대학교,서울시 노원구 공릉로 232 서울과학기술대학교,37.6330789279387,127.076794742851
7010739.0,서울관광고등학교,서울특별시 관악구 은천로15길 25,37.48781542,126.9437608
7132081.0,서울관악초등학교,서울 관악구 청룡4길 49,37.48102971,126.9425705
7134081.0,서울광남초등학교,서울특별시 광진구 아차산로70길 35,37.54096753,127.1007042
7134082.0,서울광장초등학교,서울특별시 광진구 광장로1길 27,37.54854922,127.1017999
7134083.0,서울광진초등학교,서울특별시 광진구 자양로40길 41,37.54761146,127.0913325
7010519.0,서울광진학교,서울특별시 광진구 강변역로 18,37.53766749,127.0915615
7061057.0,서울광희초등학교,서울특별시 중구 다산로 269,37.56729928,127.0156879
7061058.0,서울교동초등학교,서울특별시 종로구 삼일대로 446,37.57499368,126.988076
BE_LiST23-0029,서울교육대학교,서울 서초구 서초중앙로 96(서초동 1650),37.4907404857731,127.015424537648
7091367.0,서울교육대학교부설초등학교,서울특별시 서초구 서초중앙로 96,37.49074049,127.0154245
7134084.0,서울구남초등학교,서울특별시 광진구 구의강변로 69,37.53709659,127.0922888
7041107.0,서울구로남초등학교,서울특별시 구로구 디지털로27길 76,37.4847046,126.8902678
7041108.0,서울구로초등학교,서울특별시 구로구 구로중앙로27나길 9,37.49726168,126.8860018
7091372.0,서울구룡초등학교,서울특별시 강남구 개포로 263,37.48119739,127.0517714
7031115.0,서울구산초등학교,서울특별시 은평구 서오릉로15길 16,37.61275096,126.9093765
7132082.0,서울구암초등학교,서울특별시 관악구 구암길 1,37.48921747,126.9462717
7134085.0,서울구의초등학교,서울특별시 광진구 광나루로30길 49,37.54300744,127.0803118
7041109.0,서울구일초등학교,서울특별시 구로구 구일로 68,37.49319187,126.8734727
7031116.0,서울구현초등학교,서울특별시 은평구 갈현로15길 51,37.6097896,126.9057073
7010817.0,서울국제고등학교,서울특별시 종로구 성균관로13길 40,37.59179115,126.9954907
7021082.0,서울군자초등학교,서울특별시 동대문구 한천로6길 21,37.56412232,127.0605233
7041260.0,서울금나래초등학교,서울특별시 금천구 시흥대로79길 37,37.45823,126.8962056
7041110.0,서울금동초등학교,서울특별시 금천구 금하로30길 53,37.44776578,126.9163964
7134086.0,서울금북초등학교,서울특별시 성동구 행당로1길 13,37.55749549,127.0235565
7041111.0,서울금산초등학교,서울특별시 금천구 시흥대로24길 57,37.44142118,126.9078816
7061059.0,서울금양초등학교,서울특별시 용산구 효창원로 137,37.54094231,126.9618319
7134087.0,서울금옥초등학교,서울특별시 성동구 독서당로 251,37.54630237,127.0174916
7010964.0,서울금융고등학교,서울특별시 양천구 가로공원로61길 19,37.53765955,126.8259146
7041112.0,서울금천초등학교,서울특별시 금천구 탑골로5길 60,37.45480431,126.9128869
7134088.0,서울금호초등학교,서울특별시 성동구 무수막길 69,37.55189794,127.0207529
7031117.0,서울금화초등학교,서울특별시 서대문구 통일로 165,37.56882755,126.9629414
BE_LiST23-0030,서울기독대학교,서울 은평구 갈현로 4길 26-2호,37.6011252013344,126.91306361612
7130115.0,서울길동초등학교,서울특별시 강동구 양재대로116길 69,37.53859168,127.1449729
7121299.0,서울길원초등학교,서울특별시 성북구 길음로15길 55,37.60906464,127.0167996
7121300.0,서울길음초등학교,서울특별시 성북구 길음로 142,37.61363115,127.01666
7011483.0,서울나래학교,서울특별시 서초구 염곡안1길 25,37.46402498,127.0514985
7132083.0,서울난곡초등학교,서울특별시 관악구 난곡로35길 102,37.4691282,126.9163416
7132084.0,서울난우초등학교,서울특별시 관악구 난우길 40,37.47712059,126.9174588
7132085.0,서울난향초등학교,서울특별시 관악구 난향길 9,37.46282189,126.9183368
7081429.0,서울남명초등학교,서울특별시 양천구 중앙로23길 3,37.51568853,126.8540998
7132086.0,서울남부초등학교,서울특별시 관악구 남부순환로163길 14,37.48511944,126.9221838
7132087.0,서울남사초등학교,서울특별시 동작구 동작대로13길 22,37.48194132,126.9782344
7061060.0,서울남산초등학교,서울특별시 중구 퇴계로22길 17,37.55978374,126.9867767
7132088.0,서울남성초등학교,서울특별시 동작구 사당로23길 57-14,37.48463302,126.975578
7061061.0,서울남정초등학교,서울특별시 용산구 원효로64길 17-10,37.53567383,126.9648037
7130116.0,서울남천초등학교,서울특별시 송파구 성내천로 207,37.50132913,127.1510632
7081430.0,서울내발산초등학교,서울특별시 강서구 강서로46길 23,37.55088255,126.8381642
7132089.0,서울노량진초등학교,서울특별시 동작구 장승배기로 160,37.51171957,126.9408275
7051115.0,서울노원초등학교,서울특별시 노원구 동일로230나길 32,37.67359013,127.0584601
7051116.0,서울노일초등학교,서울특별시 노원구 동일로 1625,37.67351353,127.0551376
7031118.0,서울녹번초등학교,서울특별시 은평구 녹번로1길 1,37.60458339,126.9257463
7051117.0,서울녹천초등학교,서울특별시 노원구 마들로3길 34,37.62851011,127.0631341
7091373.0,서울논현초등학교,서울특별시 강남구 강남대로120길 33,37.50848958,127.0262229
1342099.0,서울농학교,서울특별시 종로구 필운대로 103,37.58564486,126.968775
7051118.0,서울누원초등학교,서울특별시 도봉구 마들로 859-44,37.68723271,127.0492672
7011320.0,서울다솜관광고등학교,서울특별시 종로구 종로58길 30,37.57210955,127.0174127
7011309.0,서울다원학교,서울특별시 성북구 성북로31길 5-15,37.59394051,126.9913605
7021083.0,서울답십리초등학교,서울특별시 동대문구 전농로3길 23,37.56880432,127.055427
7132090.0,서울당곡초등학교,서울특별시 관악구 보라매로2길 23,37.49016812,126.9303698
7041113.0,서울당산초등학교,서울특별시 영등포구 선유로55길 32,37.54011912,126.8962411
7041114.0,서울당서초등학교,서울특별시 영등포구 당산로 187,37.53202744,126.8998142
7041115.0,서울당중초등학교,서울특별시 영등포구 선유로 131,37.52628923,126.8894135
7051119.0,서울당현초등학교,서울특별시 노원구 동일로213길 52,37.64823031,127.0582525
7091374.0,서울대곡초등학교,서울특별시 강남구 남부순환로 3022,37.49471064,127.0650265
7041116.0,서울대길초등학교,서울특별시 영등포구 대방천로 206,37.49823145,126.913035
7091375.0,서울대도초등학교,서울특별시 강남구 선릉로 209,37.49258577,127.0532066
7041117.0,서울대동초등학교,서울특별시 영등포구 대림로21길 6,37.49370937,126.9004506
7132091.0,서울대림초등학교,서울특별시 동작구 대방동1길 22,37.50061967,126.9248781
7130117.0,서울대명초등학교,서울특별시 강동구 상암로 271,37.54770706,127.1528496
7091376.0,서울대모초등학교,서울특별시 강남구 광평로20길 27,37.48059845,127.0859938
7041118.0,서울대방초등학교,서울특별시 영등포구 여의대방로35길 14,37.50290012,126.9190202
7031119.0,서울대신초등학교,서울특별시 서대문구 이화여대2길 27,37.55794755,126.9480572
7041119.0,서울대영초등학교,서울특별시 영등포구 신길로23길 43,37.5026542,126.9065244
7091377.0,서울대왕초등학교,서울특별시 강남구 헌릉로618길 8,37.46463918,127.105304
7031120.0,서울대은초등학교,서울특별시 은평구 통일로69길 12-15,37.61236712,126.9258698
7031121.0,서울대조초등학교,서울특별시 은평구 연서로18길 17,37.61357914,126.9193022
7091378.0,서울대진초등학교,서울특별시 강남구 개포로109길 74,37.49702757,127.0778614
7091379.0,서울대청초등학교,서울특별시 강남구 양재대로55길 28,37.4931481,127.0877673
7091380.0,서울대치초등학교,서울특별시 강남구 양재천로 363,37.49128657,127.0619707
BE_LiST23-0031,서울대학교,서울 관악구 관악로 1 서울대학교,37.4662872666604,126.94815644252
7011109.0,서울대학교사범대학부설고등학교,서울특별시 성북구 월곡로 6,37.59472384,127.0381204
7061129.0,서울대학교사범대학부설여자중학교,서울특별시 종로구 대학로 64,37.5775997,127.0042955
7121371.0,서울대학교사범대학부설중학교,서울특별시 성북구 월곡로 36,37.59582047,127.0391333
7061128.0,서울대학교사범대학부설초등학교,서울특별시 종로구 대학로 64,37.5775997032467,127.004295521787
7091381.0,서울대현초등학교,서울특별시 강남구 역삼로98길 16,37.50348612,127.0632921
7061062.0,서울덕수초등학교,서울특별시 중구 덕수궁길 140,37.56908888,126.9746579
7051120.0,서울덕암초등학교,서울특별시 노원구 덕릉로112길 68,37.66663372,127.0817151
7041120.0,서울덕의초등학교,서울특별시 구로구 고척로 213,37.5060004,126.8573531
7091382.0,서울도곡초등학교,서울특별시 강남구 선릉로64길 33,37.49951141,127.0544655
7041121.0,서울도림초등학교,서울특별시 영등포구 가마산로65길 22,37.50867869,126.9071154
7051121.0,서울도봉초등학교,서울특별시 도봉구 도봉로173길 96,37.67996175,127.0382887
7091383.0,서울도성초등학교,서울특별시 강남구 역삼로 313,37.50146201,127.0488722
7011484.0,서울도솔학교,서울특별시 도봉구 평화로15번길 9-26,37.6948405,127.0424767
7011180.0,서울도시과학기술고등학교,서울특별시 성북구 종암로 196,37.6078128,127.0330442
7041122.0,서울도신초등학교,서울특별시 영등포구 도림로53길 32-9,37.49926789,126.9007141
7061063.0,서울독립문초등학교,서울특별시 종로구 통일로12길 23,37.5740826,126.9601488
7041123.0,서울독산초등학교,서울특별시 금천구 시흥대로104길 31,37.46565619,126.8997129
7010840.0,서울독일학교,서울특별시 용산구 독서당로 123-6,37.53733641,127.0118826
7121301.0,서울돈암초등학교,서울특별시 성북구 동소문로13길 38,37.59372621,127.0130043
7031122.0,서울동교초등학교,서울특별시 마포구 월드컵로25길 86,37.55833769,126.9020783
7011539.0,서울동구고등학교,서울특별시 성북구 성북로8길 71,37.5941065881018,127.008215538987
7041124.0,서울동구로초등학교,서울특별시 구로구 구로중앙로14길 43,37.494448,126.8930163
7021084.0,서울동답초등학교,서울특별시 동대문구 답십리로60길 12,37.57150142,127.0640341
7134089.0,서울동명초등학교,서울특별시 성동구 마장로29길 29,37.56812285,127.0351082
7011494.0,서울동산고등학교,서울특별시 노원구 공릉로 257,37.63077798,127.0739984
7121302.0,서울동신초등학교,서울특별시 성북구 보문사길 50,37.58328787,127.017058
7021085.0,서울동원초등학교,서울특별시 중랑구 송림길 114,37.60466834,127.1042921
7134090.0,서울동의초등학교,서울특별시 광진구 영화사로 111,37.55342244,127.0990473
7051122.0,서울동일초등학교,서울특별시 노원구 한글비석로 566,37.66481783,127.0543222
7134091.0,서울동자초등학교,서울특별시 광진구 뚝섬로 561,37.53505821,127.0721792
7132092.0,서울동작초등학교,서울특별시 동작구 동작대로29길 214,37.49406054,126.9764893
7010582.0,서울동천학교,서울특별시 노원구 노원로18길 41,37.64451236,127.0729257
7134092.0,서울동호초등학교,서울특별시 성동구 매봉길 49-35,37.54629208,127.0098797
7041125.0,서울두산초등학교,서울특별시 금천구 범안로11길 3,37.46754668,126.8909465
7130118.0,서울둔촌초등학교,서울특별시 강동구 양재대로88길 27,37.52621993,127.1374541
7011189.0,서울드와이트외국인학교,서울특별시 마포구 월드컵북로62길 21,37.58414481,126.885285
7081431.0,서울등마초등학교,서울특별시 강서구 등촌로35길 12,37.54204371,126.8616672
7081432.0,서울등명초등학교,서울특별시 강서구 강서로56나길 34,37.56089445,126.8423822
7081433.0,서울등서초등학교,서울특별시 강서구 화곡로58길 86,37.55188439,126.8550381
7081434.0,서울등양초등학교,서울특별시 강서구 강서로56나길 140,37.56494704,126.8447602
7081435.0,서울등원초등학교,서울특별시 강서구 화곡로65길 90,37.55981354,126.850069
7081436.0,서울등촌초등학교,서울특별시 강서구 등촌로39길 71,37.54761422,126.8579422
7081437.0,서울등현초등학교,서울특별시 강서구 화곡로65길 124,37.56145118,126.8475984
7010741.0,서울디자인고등학교,서울특별시 마포구 백범로 139,37.5466750773343,126.948479002412
BE_LiST23-0032,서울디지털대학교,서울 마포구 도화동 560번지,37.5429684534294,126.947855469473
7010572.0,서울디지텍고등학교,서울특별시 용산구 회나무로12길 27,37.53896942,126.9906177
7010738.0,서울로봇고등학교,서울특별시 강남구 광평로20길 63,37.48074142,127.0841549
7134093.0,서울마장초등학교,서울특별시 성동구 마장로35나길 31,37.5683388716972,127.041605053834
7130119.0,서울마천초등학교,서울특별시 송파구 마천로61다길 24,37.49543751,127.1527046
7031123.0,서울마포초등학교,서울특별시 마포구 도화2길 64,37.53863763,126.9499738
7021086.0,서울망우초등학교,서울특별시 중랑구 망우로72길 49,37.59873698,127.1038418
7031124.0,서울망원초등학교,서울특별시 마포구 방울내로5길 28,37.56104394,126.9011172
7011506.0,서울매그넷고등학교,서울특별시 금천구 탑골로10길 45,37.4519206711218,126.915824008297
7061064.0,서울매동초등학교,서울특별시 종로구 사직로9길 19,37.57753914,126.966717
7041126.0,서울매봉초등학교,서울특별시 구로구 고척로21길 55,37.5049422,126.8443831
7091384.0,서울매헌초등학교,서울특별시 서초구 언남길 8,37.47126248,127.0420579
1342098.0,서울맹학교,서울특별시 종로구 필운대로 97,37.58477269,126.9677618
7021087.0,서울면남초등학교,서울특별시 중랑구 면목로30나길 38,37.57725972,127.0876664
7021088.0,서울면동초등학교,서울특별시 중랑구 면목로57길 32,37.58524071,127.0859611
7021089.0,서울면목초등학교,서울특별시 중랑구 면목로 434,37.5906966,127.0872878
7021090.0,서울면북초등학교,서울특별시 중랑구 용마공원로5길 32,37.59441816,127.1035478
7021091.0,서울면일초등학교,서울특별시 중랑구 용마산로100길 13,37.5920416,127.0997947
7021092.0,서울면중초등학교,서울특별시 중랑구 용마산로70길 43,37.58244179,127.0965509
7130120.0,서울명덕초등학교,서울특별시 강동구 양재대로156길 11,37.55676233,127.1450815
7061065.0,서울명신초등학교,서울특별시 종로구 낙산길 250,37.58136063,127.0137245
7130121.0,서울명원초등학교,서울특별시 강동구 명일로 364,37.55128785,127.1505002
7130122.0,서울명일초등학교,서울특별시 강동구 고덕로38길 8,37.5545536,127.1425911
7081438.0,서울목동초등학교,서울특별시 양천구 목동동로12길 12,37.52280877,126.8721195
7081439.0,서울목운초등학교,서울특별시 양천구 목동동로 235,37.527009517428,126.873044206364
7081440.0,서울목원초등학교,서울특별시 양천구 목동중앙로 204,37.54293497,126.8824459
7130123.0,서울묘곡초등학교,서울특별시 강동구 동남로79길 46,37.55871279,127.1530934
7134094.0,서울무학초등학교,서울특별시 성동구 무학봉15길 21,37.56327474,127.0296437
7021093.0,서울묵동초등학교,서울특별시 중랑구 동일로138길 27,37.60335949,127.0808272
7021094.0,서울묵현초등학교,서울특별시 중랑구 동일로157길 75,37.60904476,127.0739287
7041127.0,서울문교초등학교,서울특별시 금천구 독산로54길 102,37.46676964,126.9089299
7130124.0,서울문덕초등학교,서울특별시 송파구 송이로34길 60,37.48505216,127.1279627
7041128.0,서울문래초등학교,서울특별시 영등포구 문래로 104,37.51914038,126.8936057
7041129.0,서울문백초등학교,서울특별시 금천구 시흥대로47길 43-1,37.44711987,126.8986887
7041130.0,서울문성초등학교,서울특별시 금천구 시흥대로 460,37.47488188,126.8994713
7010697.0,서울문영여자고등학교,서울특별시 관악구 관악로 85,37.4729045674501,126.950918062755
7132145.0,서울문영여자중학교,서울특별시 관악구 관악로 85,37.47290457,126.9509181
7130125.0,서울문정초등학교,서울특별시 송파구 문정로5길 20,37.48907741,127.1292062
7132093.0,서울문창초등학교,서울특별시 동작구 신대방2길 14,37.48894829,126.914528
7130126.0,서울문현초등학교,서울특별시 송파구 충민로 137,37.48279092,127.1302571
7010888.0,서울문화고등학교,서울특별시 도봉구 마들로 598,37.66413143,127.0472858
7031125.0,서울미동초등학교,서울특별시 서대문구 충정로 52,37.56335057,126.9658861
7041131.0,서울미래초등학교,서울특별시 구로구 새말로 73,37.50510665,126.8880803
7132094.0,서울미성초등학교,서울특별시 관악구 문성로 79,37.47833997,126.9123923
7010185.0,서울미술고등학교,서울특별시 관악구 남부순환로247길 26,37.47669631,126.9667485
7121303.0,서울미아초등학교,서울특별시 성북구 삼양로 77,37.61058761,127.0216444
7121304.0,서울미양초등학교,서울특별시 강북구 솔샘로 195,37.62153242,127.0141334
7011575.0,서울반도체고등학교,서울특별시 동대문구 겸재로 21,37.58515301,127.0694509
7091385.0,서울반원초등학교,서울특별시 서초구 잠원로3길 28,37.51038722,127.0042361
7091386.0,서울반포초등학교,서울특별시 서초구 신반포로 55-4,37.50248483,126.9917416
7081441.0,서울발산초등학교,서울특별시 강서구 강서로45길 113,37.55026244,126.8309944
7091387.0,서울방배초등학교,서울특별시 서초구 방배중앙로13길 26,37.4867641,126.987138
7130127.0,서울방산초등학교,서울특별시 송파구 오금로27길 42,37.50953792,127.1211907
7010836.0,서울방송고등학교,서울특별시 성동구 동호로5길 131,37.54777448,127.0110373
7130128.0,서울방이초등학교,서울특별시 송파구 위례성대로10길 4,37.51351229,127.1205311
7091388.0,서울방일초등학교,서울특별시 서초구 방배로18길 52,37.4852056,126.998849
7051123.0,서울방학초등학교,서울특별시 도봉구 도당로9길 34,37.66393373,127.032748
7091389.0,서울방현초등학교,서울특별시 서초구 효령로4길 58,37.47650298,126.9900734
7081442.0,서울방화초등학교,서울특별시 강서구 양천로6길 92,37.56870409,126.8074982
7021095.0,서울배봉초등학교,서울특별시 동대문구 사가정로 193,37.58008416,127.0668719
7041132.0,서울백산초등학교,서울특별시 금천구 시흥대로38길 78,37.44676728,126.9050646
7081443.0,서울백석초등학교,서울특별시 강서구 공항대로 491,37.55364765,126.8624258
7051124.0,서울백운초등학교,서울특별시 도봉구 삼양로146길 17,37.65264151,127.0136725
7130129.0,서울버들초등학교,서울특별시 송파구 석촌호수로 81,37.5102185,127.0892746
7121305.0,서울번동초등학교,서울특별시 강북구 오현로 204,37.62902386,127.0400394
7061066.0,서울보광초등학교,서울특별시 용산구 우사단로 20,37.53254047,126.9963911
7132095.0,서울보라매초등학교,서울특별시 동작구 여의대방로16길 30,37.49585189,126.9161445
7132096.0,서울본동초등학교,서울특별시 동작구 노량진로26길 16-40,37.51065681,126.9539239
7061067.0,서울봉래초등학교,서울특별시 중구 손기정로 73,37.55641234,126.9652506
7091390.0,서울봉은초등학교,서울특별시 강남구 학동로 610,37.52004783,127.0607467
7132097.0,서울봉천초등학교,서울특별시 관악구 행운1라길 17,37.48327321,126.9582092
7132098.0,서울봉현초등학교,서울특별시 관악구 성현로 117,37.49120221,126.9553472
7021096.0,서울봉화초등학교,서울특별시 중랑구 신내로15길 110,37.61357623,127.0924085
7031126.0,서울북가좌초등학교,서울특별시 서대문구 거북골로19길 20,37.57722021,126.9077782
7031127.0,서울북성초등학교,서울특별시 서대문구 북아현로1나길 22,37.55963212,126.9518349
7031128.0,서울북한산초등학교,서울특별시 은평구 대서문길 42-3,37.65363208,126.9504624
7031129.0,서울불광초등학교,서울특별시 은평구 불광로 51,37.61342945,126.9307187
7051125.0,서울불암초등학교,서울특별시 노원구 중계로 178,37.65115064,127.080651
7134095.0,서울사근초등학교,서울특별시 성동구 사근동11길 16,37.56267971,127.0475738
7132099.0,서울사당초등학교,서울특별시 관악구 남현4길 51,37.47381962,126.973367
BE_LiST23-0033,서울사이버대학교,서울 강북구 솔매로49길 60(미아동 193-15) 서울사이버대학교,37.629843917766,127.027123065417
7010565.0,서울산업정보학교,서울특별시 관악구 신림로 67,37.4705041702937,126.941940568518
7121306.0,서울삼각산초등학교,서울특별시 강북구 삼양로19길 141,37.6160412359101,127.014342650437
7061068.0,서울삼광초등학교,서울특별시 용산구 두텁바위로1나길 19,37.54775231,126.9765943
7091391.0,서울삼릉초등학교,서울특별시 강남구 봉은사로63길 22,37.5132583,127.0471723
7121307.0,서울삼선초등학교,서울특별시 성북구 보문로29길 106,37.58714152,127.0126718
7132100.0,서울삼성초등학교,서울특별시 관악구 대학7길 52,37.46852204,126.9404929
7010464.0,서울삼성학교,서울특별시 동작구 양녕로30길 19-4,37.49919802,126.9466724
7121308.0,서울삼양초등학교,서울특별시 강북구 삼양로49길 17,37.62329558,127.0161491
7021168.0,서울삼육초등학교,서울특별시 동대문구 회기로10길 63,37.58969413,127.0482485
7132101.0,서울삼일초등학교,서울특별시 동작구 사당로23나길 27,37.48825931,126.9751885
7130130.0,서울삼전초등학교,서울특별시 송파구 백제고분로28길 19,37.50170128,127.0932681
7081444.0,서울삼정초등학교,서울특별시 강서구 금낭화로 222,37.58050843,126.8104937
7051126.0,서울상경초등학교,서울특별시 노원구 수락산로 237,37.67045947,127.0517738
7051127.0,서울상계초등학교,서울특별시 노원구 상계로9길 39,37.65884385,127.0663364
7051128.0,서울상곡초등학교,서울특별시 노원구 노원로38길 34,37.6628823,127.0622342
7132102.0,서울상도초등학교,서울특별시 동작구 성대로21길 62,37.50037603,126.9373788
7021097.0,서울상봉초등학교,서울특별시 중랑구 동일로126가길 11,37.59797895,127.0831714
7051129.0,서울상수초등학교,서울특별시 노원구 동일로216길 66,37.6510889,127.0645868
7031130.0,서울상신초등학교,서울특별시 은평구 가좌로 361,37.59755372,126.9046049
7031131.0,서울상암초등학교,서울특별시 마포구 월드컵북로 353,37.57630958,126.89196
7051130.0,서울상원초등학교,서울특별시 노원구 한글비석로54길 119,37.66766551,127.0596307
7051131.0,서울상월초등학교,서울특별시 노원구 동일로221길 27,37.65868395,127.0573693
7130131.0,서울상일초등학교,서울특별시 강동구 천호대로 1477,37.54757217,127.1726635
7031132.0,서울상지초등학교,서울특별시 마포구 월드컵로42길 30,37.57975102,126.8820736
7051132.0,서울상천초등학교,서울특별시 노원구 덕릉로 443,37.64610601,127.057448
7132103.0,서울상현초등학교,서울특별시 동작구 상도로58길 21,37.49487439,126.9526691
7011468.0,서울새롬학교,서울특별시 관악구 보라매로 44,37.49316847,126.9273716
7021181.0,서울새솔초등학교,서울특별시 중랑구 신내역로1길 164,37.6179524,127.1113284
7031133.0,서울서강초등학교,서울특별시 마포구 독막로 113,37.54810508,126.9274309
7031134.0,서울서교초등학교,서울특별시 마포구 와우산로23길 20-27,37.55488173,126.9243824
7091392.0,서울서래초등학교,서울특별시 서초구 방배로 260,37.496404,126.9901565
7061069.0,서울서빙고초등학교,서울특별시 용산구 서빙고로51길 14,37.52206892,126.9923004
7031135.0,서울서신초등학교,서울특별시 은평구 은평터널로 150,37.59229405,126.9073823
7091393.0,서울서원초등학교,서울특별시 서초구 고무래로 63,37.5024389,127.0146195
7091394.0,서울서이초등학교,서울특별시 서초구 서운로 35,37.49156467,127.025618
7091395.0,서울서일초등학교,서울특별시 서초구 남부순환로339길 38,37.48529778,127.0221598
7081445.0,서울서정초등학교,서울특별시 양천구 목동로8길 19,37.52345012,126.8672362
7011485.0,서울서진학교,서울특별시 강서구 양천로55길 22,37.56547682,126.8506223
7091396.0,서울서초초등학교,서울특별시 서초구 서운로 178,37.49904877,127.0248915
7121309.0,서울석계초등학교,서울특별시 성북구 한천로58길 273,37.60881368,127.0697321
7121310.0,서울석관초등학교,서울특별시 성북구 돌곶이로22길 21,37.61102206,127.0583553
7130132.0,서울석촌초등학교,서울특별시 송파구 가락로11길 26,37.50265278,127.1052385
7051133.0,서울선곡초등학교,서울특별시 노원구 광운로2길 1,37.61860202,127.0577303
7130133.0,서울선린초등학교,서울특별시 강동구 진황도로61길 29,37.52976012,127.145594
7130134.0,서울선사초등학교,서울특별시 강동구 올림픽로 837,37.55584691,127.128196
7041133.0,서울선유초등학교,서울특별시 영등포구 선유로43가길 14,37.53287919,126.8927768
7130135.0,서울성내초등학교,서울특별시 강동구 성내로3길 19,37.53135786,127.1225001
7121311.0,서울성북초등학교,서울특별시 성북구 성북로 102-10,37.59405389,126.9987754
7031136.0,서울성산초등학교,서울특별시 마포구 양화로3길 94,37.55344533,126.9106697
7031137.0,서울성서초등학교,서울특별시 마포구 성미산로7길 24,37.56101504,126.910759
7134096.0,서울성수초등학교,서울특별시 성동구 아차산로17길 21,37.54433788,127.0628861
7031138.0,서울성원초등학교,서울특별시 마포구 월드컵로36길 34,37.56693244,126.9050136
7130136.0,서울성일초등학교,서울특별시 강동구 성내로15길 33,37.52970924,127.1284083
7134097.0,서울성자초등학교,서울특별시 광진구 뚝섬로56길 7,37.53149357,127.0834083
7061070.0,서울세검정초등학교,서울특별시 종로구 세검정로9길 1,37.6034986,126.9610731
7041134.0,서울세곡초등학교,서울특별시 구로구 고척로33길 34,37.50506044,126.8491266
7130137.0,서울세륜초등학교,서울특별시 송파구 양재대로 1264,37.51857484,127.1341577
7091458.0,서울세명초등학교,서울특별시 강남구 자곡로 55,37.4688571,127.0910759
7010186.0,서울세종고등학교,서울특별시 강남구 광평로51길 36,37.49038935,127.1027968
7031139.0,서울소의초등학교,서울특별시 마포구 마포대로24길 42,37.55278186,126.9606556
7130138.0,서울송례초등학교,서울특별시 송파구 위례순환로 439,37.47789403,127.1384959
7134098.0,서울송원초등학교,서울특별시 성동구 동일로43길 9,37.55415927,127.0695262
7130139.0,서울송전초등학교,서울특별시 송파구 석촌호수로 159,37.50883126,127.0951214
7081446.0,서울송정초등학교,서울특별시 강서구 공항대로3길 18,37.56223089,126.8102813
7121312.0,서울송중초등학교,서울특별시 강북구 오현로 9,37.61746908,127.0319965
7121313.0,서울송천초등학교,서울특별시 강북구 삼양로20길 29,37.6149052,127.0237354
7130140.0,서울송파초등학교,서울특별시 송파구 백제고분로 400,37.50695497,127.1112472
7081447.0,서울송화초등학교,서울특별시 강서구 방화대로34길 2,37.56815047,126.8180329
7051134.0,서울수락초등학교,서울특별시 노원구 동일로 1745,37.68450608,127.0551873
7031230.0,서울수리초등학교,서울특별시 은평구 불광로14길 10-10,37.62030737,126.9341109
7081448.0,서울수명초등학교,서울특별시 강서구 수명로1길 84,37.55277267,126.8238794
7031140.0,서울수색초등학교,서울특별시 은평구 수색로16길 21,37.58517215,126.8960121
7091397.0,서울수서초등학교,서울특별시 강남구 광평로51길 46,37.49113737,127.1018578
7121314.0,서울수송초등학교,서울특별시 강북구 한천로124길 14,37.63731441,127.0329178
7051135.0,서울수암초등학교,서울특별시 노원구 중계로12길 9,37.6476849,127.0814656
7121315.0,서울수유초등학교,서울특별시 강북구 삼양로74길 39,37.63124966,127.0202924
7121316.0,서울숭곡초등학교,서울특별시 성북구 종암로40길 30,37.60843284,127.0328151
7121317.0,서울숭덕초등학교,서울특별시 성북구 정릉로 279,37.60382548,127.0132924
7121318.0,서울숭례초등학교,서울특별시 성북구 종암로5길 14,37.59452119,127.0352972
7051136.0,서울숭미초등학교,서울특별시 도봉구 노해로 179,37.65102344,127.0279443
7134150.0,서울숭신초등학교,서울특별시 성동구 마장로 161,37.56768831,127.0280051
7121319.0,서울숭인초등학교,서울특별시 성북구 오패산로16길 37,37.60909779,127.0381465
BE_LiST23-0034,서울시립대학교,서울 동대문구 서울시립대로 163 (전농동 90번지) ,37.5825775765293,127.059988126984
7041135.0,서울시흥초등학교,서울특별시 금천구 독산로23길 26,37.4553482,126.9046492
7130141.0,서울신가초등학교,서울특별시 송파구 송이로 75,37.50032072,127.1197004
7081449.0,서울신강초등학교,서울특별시 양천구 중앙로55길 72,37.52584419,126.8422639
7051137.0,서울신계초등학교,서울특별시 노원구 초안산로 29,37.62998908,127.052872
7081450.0,서울신곡초등학교,서울특별시 강서구 등촌로13자길 42-14,37.53909546,126.8560096
7041136.0,서울신구로초등학교,서울특별시 구로구 가마산로27길 69,37.49942087,126.8888574
7091398.0,서울신구초등학교,서울특별시 강남구 압구정로18길 28,37.52336057,127.0239924
7081451.0,서울신기초등학교,서울특별시 양천구 신정로 292,37.51131231,126.854213
7132104.0,서울신길초등학교,서울특별시 동작구 알마타길 16,37.51036652,126.9268086
7132105.0,서울신남성초등학교,서울특별시 동작구 사당로 146,37.48870471,126.9646797
7081452.0,서울신남초등학교,서울특별시 양천구 남부순환로83길,37.51645783,126.8431522
7021098.0,서울신내초등학교,서울특별시 중랑구 용마산로125나길 22,37.60493422,127.1001285
7021099.0,서울신답초등학교,서울특별시 동대문구 천호대로 177,37.57270461,127.0429617
7061072.0,서울신당초등학교,서울특별시 중구 난계로 141,37.56362621,127.0236731
7041137.0,서울신대림초등학교,서울특별시 영등포구 대림로8길 25,37.49214874,126.9060777
7041138.0,서울신도림초등학교,서울특별시 구로구 신도림로19길 44,37.51199636,126.8831507
7031141.0,서울신도초등학교,서울특별시 은평구 진관1로 77-23,37.63293843,126.9291989
7091399.0,서울신동초등학교,서울특별시 서초구 나루터로 15,37.51713004,127.0113904
7132106.0,서울신림초등학교,서울특별시 관악구 문성로28길 31,37.47711985,126.9268767
7130142.0,서울신명초등학교,서울특별시 강동구 명일로24길 33,37.54092685,127.1499791
7081453.0,서울신목초등학교,서울특별시 양천구 신목로5길 11-6,37.51661098,126.8726408
7021100.0,서울신묵초등학교,서울특별시 중랑구 동일로149길 46,37.60652285,127.0758358
7041139.0,서울신미림초등학교,서울특별시 구로구 신도림로 26,37.5071588,126.8795842
7051138.0,서울신방학초등학교,서울특별시 도봉구 시루봉로 173,37.66668425,127.0289181
7132107.0,서울신봉초등학교,서울특별시 관악구 양녕로6나길 1,37.48557795,126.9491309
7031142.0,서울신북초등학교,서울특별시 마포구 월드컵북로38길 26,37.57154596,126.904869
7031143.0,서울신사초등학교,서울특별시 은평구 가좌로 275-2,37.59283483,126.9119832
7051139.0,서울신상계초등학교,서울특별시 노원구 상계로 267,37.66751836,127.075828
7132108.0,서울신상도초등학교,서울특별시 동작구 장승배기로 14,37.50082463,126.9438177
7081454.0,서울신서초등학교,서울특별시 양천구 목동서로10길 35,37.52053525,126.862325
7031144.0,서울신석초등학교,서울특별시 마포구 대흥로 33,37.54453573,126.9377795
7132109.0,서울신성초등학교,서울특별시 관악구 신림로 114,37.47200331,126.9367542
7130143.0,서울신암초등학교,서울특별시 강동구 올림픽로93길 33-16,37.55002367,127.1244044
7134099.0,서울신양초등학교,서울특별시 광진구 능동로 42,37.53468209,127.0699953
7041140.0,서울신영초등학교,서울특별시 영등포구 도신로4길 32,37.50100602,126.8960948
7061073.0,서울신용산초등학교,서울특별시 용산구 이촌로 255,37.52062959,126.9753663
7132110.0,서울신우초등학교,서울특별시 관악구 호암로 498,37.46327253,126.9325352
7081455.0,서울신원초등학교,서울특별시 양천구 남부순환로58길 32,37.52951558,126.8298656
7081456.0,서울신월초등학교,서울특별시 강서구 강서로31길 48,37.54036551,126.8394555
7081482.0,서울신은초등학교,서울특별시 양천구 신정이펜2로 30,37.51391281,126.8321696
7134100.0,서울신자초등학교,서울특별시 광진구 뚝섬로46길 64,37.53024545,127.0755876
7011492.0,서울신정고등학교,서울특별시 강서구 등촌로13아길 20,37.5384117486135,126.85717155125
7081457.0,서울신정초등학교,서울특별시 강서구 곰달래로31가길 27,37.53207171,126.8523579
7091400.0,서울신중초등학교,서울특별시 서초구 남부순환로317길 15,37.48015788,127.0093433
7051140.0,서울신창초등학교,서울특별시 도봉구 덕릉로60길 93,37.63653953,127.0420843
7130144.0,서울신천초등학교,서울특별시 송파구 올림픽로 215,37.51400777,127.0950365
7051141.0,서울신학초등학교,서울특별시 도봉구 방학로 247-21,37.66122045,127.0257213
7021101.0,서울신현초등학교,서울특별시 중랑구 봉화산로 188,37.60581459,127.0935218
7051142.0,서울신화초등학교,서울특별시 도봉구 우이천로 120,37.63319504,127.0408842
7041141.0,서울신흥초등학교,서울특별시 금천구 독산로36나길 21,37.45928427,126.9093492
7011216.0,서울실용음악고등학교,서울특별시 중구 퇴계로88가길 8,37.56334459,127.0206313
7051143.0,서울쌍문초등학교,서울특별시 도봉구 우이천로 360,37.64836383,127.0242911
7010960.0,서울아이티고등학교,서울특별시 노원구 섬밭로 299,37.64241844,127.0624493
7130145.0,서울아주초등학교,서울특별시 송파구 올림픽로4길 59,37.5057897,127.0753173
7031145.0,서울아현초등학교,서울특별시 마포구 굴레방로 6,37.55581599,126.9565961
7031146.0,서울안산초등학교,서울특별시 서대문구 통일로 321,37.57916901,126.9522097
7121320.0,서울안암초등학교,서울특별시 성북구 고려대로7가길 39,37.5871587,127.0220989
7041142.0,서울안천초등학교,서울특별시 금천구 한내로 69-16,37.45875781,126.8883914
7021102.0,서울안평초등학교,서울특별시 동대문구 장한로14길 61,37.56596821,127.0720334
7091401.0,서울압구정초등학교,서울특별시 강남구 압구정로39길 29,37.53173911,127.0308417
7010465.0,서울애화학교,서울특별시 강북구 솔매로52길 31,37.62524951,127.0290573
7081458.0,서울양강초등학교,서울특별시 양천구 오목로 101,37.52411035,126.8473753
7134101.0,서울양남초등학교,서울특별시 광진구 뚝섬로64길 71,37.53112324,127.0892343
7081459.0,서울양동초등학교,서울특별시 양천구 오목로23길 24,37.52584826,126.8512402
7081460.0,서울양명초등학교,서울특별시 양천구 중앙로 204,37.51637495,126.8566349
7081461.0,서울양목초등학교,서울특별시 양천구 목동로11길 30,37.52387928,126.8616692
7021205.0,서울양원숲초등학교,서울특별시 중랑구 양원역로 95,37.60904974,127.1054337
7081462.0,서울양원초등학교,서울특별시 양천구 화곡로 16,37.53821733,126.8231052
7091402.0,서울양재초등학교,서울특별시 서초구 바우뫼로18길 14,37.47416538,127.0318925
7091403.0,서울양전초등학교,서울특별시 강남구 개포로 513,37.49024785,127.0691709
7134102.0,서울양진초등학교,서울특별시 광진구 워커힐로 32,37.5445751665695,127.098311399741
7081463.0,서울양천초등학교,서울특별시 강서구 양천로 329,37.57018817,126.8395397
7081464.0,서울양화초등학교,서울특별시 양천구 목동중앙북로16길 57,37.5436693,126.873986
7031285.0,서울어울초등학교,서울특별시 은평구 통일로 650,37.60656331,126.9350586
7091404.0,서울언남초등학교,서울특별시 서초구 헌릉로8길 42,37.45411333,127.0614366
7091405.0,서울언북초등학교,서울특별시 강남구 삼성로135길 42,37.52012517,127.0447158
7091406.0,서울언주초등학교,서울특별시 강남구 남부순환로363길 19,37.486322,127.036793
7041143.0,서울여의도초등학교,서울특별시 영등포구 여의대방로 439,37.52320482,126.9367944
BE_LiST23-0035,서울여자간호대학교,서울 서대문구 홍제3동 서울여자간호대학,37.597029954835,126.956476606594
7010085.0,서울여자고등학교,서울특별시 마포구 백범로25길 34,37.5478000312208,126.94902525222
BE_LiST23-0036,서울여자대학교,서울특별시 노원구 화랑로 621 서울여자대학교,37.6273815936787,127.091621159803
7010340.0,서울여자상업고등학교,서울특별시 관악구 관악로 85,37.4729045674501,126.950918062755
7031191.0,서울여자중학교,서울특별시 마포구 백범로25길 34,37.54780003,126.9490253
7091407.0,서울역삼초등학교,서울특별시 강남구 강남대로66길 21,37.49314441,127.0325649
7031147.0,서울역촌초등학교,서울특별시 은평구 은평로3길 25,37.60158417,126.913928
7031148.0,서울연가초등학교,서울특별시 서대문구 증가로12가길 49-50,37.5795632,126.9173292
7031149.0,서울연광초등학교,서울특별시 은평구 연서로35길 37,37.62364876,126.923909
7031150.0,서울연신초등학교,서울특별시 은평구 연서로 347,37.62605996,126.9277513
7031151.0,서울연은초등학교,서울특별시 은평구 백련산로2길 35,37.59051222,126.9251126
7051144.0,서울연지초등학교,서울특별시 노원구 월계로55길 48,37.6331962,127.05955
7031152.0,서울연천초등학교,서울특별시 은평구 연서로34길 22,37.62134929,126.9299179
7051145.0,서울연촌초등학교,서울특별시 노원구 공릉로58길 36,37.63442392,127.0725229
7031153.0,서울연희초등학교,서울특별시 서대문구 연희로 136,37.56904593,126.9341423
7081466.0,서울염경초등학교,서울특별시 강서구 양천로69길 49,37.55500067,126.8712046
7081467.0,서울염동초등학교,서울특별시 강서구 양천로73길 17,37.55209548,126.8723509
7031154.0,서울염리초등학교,서울특별시 마포구 토정로37길 37,37.54257093,126.9462476
7081468.0,서울염창초등학교,서울특별시 강서구 양천로 646-28,37.55322614,126.8676002
7041144.0,서울영남초등학교,서울특별시 금천구 문성로 62-15,37.4758807,126.9099228
7081469.0,서울영도초등학교,서울특별시 양천구 목동중앙로 70,37.53594995,126.8719426
7041145.0,서울영동초등학교,서울특별시 영등포구 국회대로53길 20,37.52700691,126.9077034
7041146.0,서울영등포초등학교,서울특별시 영등포구 경인로 756,37.51294802,126.89826
7041147.0,서울영림초등학교,서울특별시 영등포구 시흥대로173길 14,37.48734601,126.9025161
7041148.0,서울영문초등학교,서울특별시 영등포구 문래로 56,37.51980741,126.8875891
7132111.0,서울영본초등학교,서울특별시 동작구 만양로12가길 69,37.51130651,126.9486405
7010795.0,서울영상고등학교,서울특별시 양천구 목동로11길 46,37.52330444,126.8602935
7041149.0,서울영서초등학교,서울특별시 구로구 도림로20길 57,37.48796309,126.8950274
7041150.0,서울영신초등학교,서울특별시 영등포구 도신로60길 23,37.51017196,126.9181221
7041151.0,서울영원초등학교,서울특별시 영등포구 도영로 22길 31,37.51071936,126.9021825
7041152.0,서울영일초등학교,서울특별시 구로구 남부순환로105길 218,37.48561007,126.8839113
7041153.0,서울영중초등학교,서울특별시 영등포구 양산로 185,37.5241433,126.9036957
7130146.0,서울영풍초등학교,서울특별시 송파구 오금로57길 15,37.49618624,127.1432147
7132112.0,서울영화초등학교,서울특별시 동작구 등용로8길 3,37.50893695,126.932816
7091408.0,서울영희초등학교,서울특별시 강남구 일원로 21,37.4923004,127.0811328
7010187.0,서울예술고등학교,서울특별시 종로구 평창문화로 70,37.60575682,126.9678907
7130147.0,서울오금초등학교,서울특별시 송파구 위례성대로22길 11,37.50937049,127.1319779
7041154.0,서울오류남초등학교,서울특별시 구로구 서해안로24길 22,37.48971668,126.8390985
7041155.0,서울오류초등학교,서울특별시 구로구 경인로19길 39,37.49753706,126.8420377
7130148.0,서울오륜초등학교,서울특별시 송파구 양재대로 1196,37.51242748,127.1343968
7051146.0,서울오봉초등학교,서울특별시 도봉구 시루봉로 285,37.67171849,127.040259
7041156.0,서울오정초등학교,서울특별시 구로구 경인로2길 10,37.49013725,126.8264177
7121321.0,서울오현초등학교,서울특별시 강북구 월계로 221,37.62320284,127.0462259
7134103.0,서울옥수초등학교,서울특별시 성동구 금호로1길 25,37.54552939,127.0218696
7134104.0,서울옥정초등학교,서울특별시 성동구 한림말길 43,37.54230974,127.0157855
7051147.0,서울온곡초등학교,서울특별시 노원구 한글비석로52길 59,37.66732953,127.0655974
7041157.0,서울온수초등학교,서울특별시 구로구 부일로 893,37.49351062,126.8266616
7091409.0,서울왕북초등학교,서울특별시 강남구 광평로31길 74,37.48626102,127.0862372
7010188.0,서울외국어고등학교,서울특별시 도봉구 덕릉로66길 22,37.64578079,127.0515087
7010804.0,서울외국인학교,서울특별시 서대문구 연희로22길 39,37.57014382,126.9363287
7031155.0,서울용강초등학교,서울특별시 마포구 백범로17길 9,37.54911243,126.9440585
7134105.0,서울용곡초등학교,서울특별시 광진구 용마산로22길 82,37.56710862,127.088453
7134106.0,서울용답초등학교,서울특별시 성동구 용답25길 1,37.56072712,127.0537608
7051148.0,서울용동초등학교,서울특별시 노원구 한글비석로1길 81-11,37.64105757,127.0691148
7021103.0,서울용두초등학교,서울특별시 동대문구 천호대로13길 43,37.57640498,127.028382
7134107.0,서울용마초등학교,서울특별시 광진구 천호대로113길 10,37.55782735,127.0835274
7010839.0,서울용산국제학교,서울특별시 용산구 이태원로 285,37.54102641,127.0011366
7061074.0,서울용산초등학교,서울 용산구 한강대로57길 33,37.53561344,126.9725506
7061075.0,서울용암초등학교,서울특별시 용산구 녹사평대로60길 39,37.5453029,126.9894348
7051149.0,서울용원초등학교,서울특별시 노원구 섬밭로 144,37.62993015,127.0689367
7091419.0,서울우면초등학교,서울특별시 서초구 태봉로,37.46536556,127.0260546
7091460.0,서울우솔초등학교,서울특별시 서초구 양재대로2길 74,37.45709422,127.0192756
7041158.0,서울우신초등학교,서울특별시 영등포구 신길로 190,37.50986472,126.9118637
7091410.0,서울우암초등학교,서울특별시 서초구 바우뫼로7길 38,37.47229555,127.0237234
7121322.0,서울우이초등학교,서울특별시 강북구 삼양로99길 36,37.63860583,127.0142405
7081470.0,서울우장초등학교,서울특별시 강서구 화곡로 263,37.54963819,126.8459842
7051150.0,서울원광초등학교,서울특별시 노원구 덕릉로76길 18,37.65429085,127.0753043
7132113.0,서울원당초등학교,서울특별시 관악구 봉천로 505,37.48130479,126.9557666
7091411.0,서울원명초등학교,서울특별시 서초구 고무래로 90-6,37.5007499,127.017067
7021104.0,서울원묵초등학교,서울특별시 중랑구 숙선옹주로 109,37.61774881,127.0868142
7132114.0,서울원신초등학교,서울특별시 관악구 광신길 177,37.46720755,126.9272752
7091412.0,서울원촌초등학교,서울특별시 서초구 사평대로45길 26,37.50624464,127.0123467
7061076.0,서울원효초등학교,서울특별시 용산구 효창원로13길 38,37.53616126,126.9515453
7051151.0,서울월계초등학교,서울특별시 노원구 월계로45가길 10,37.62795058,127.0508695
7121323.0,서울월곡초등학교,서울특별시 성북구 장월로3길 42,37.61002442,127.046081
7081471.0,서울월정초등학교,서울특별시 강서구 월정로 176,37.53499419,126.8362936
7051152.0,서울월천초등학교,서울특별시 도봉구 노해로70길 96,37.64791373,127.0514258
7081472.0,서울월촌초등학교,서울특별시 양천구 목동중앙로 132,37.54069543,126.876258
7011558.0,서울웹툰애니메이션고등학교,서울특별시 서초구 과천대로 852-23,37.46949097,126.9882459
7130245.0,서울위례별초등학교,서울특별시 송파구 위례광장로 243,37.47904976,127.1450188
7130270.0,서울위례솔초등학교,서울특별시 송파구 위례북로2길 12,37.48673404,127.1507539
7130149.0,서울위례초등학교,서울특별시 강동구 명일로 23,37.52231852,127.1394366
7121324.0,서울유현초등학교,서울특별시 강북구 인수봉로37길 24,37.63228645,127.0113271
7041159.0,서울윤중초등학교,서울특별시 영등포구 여의나루로2길 14,37.51964164,126.9225908
7091468.0,서울율현초등학교,서울특별시 강남구 밤고개로21길 15,37.4745587,127.108265
7132115.0,서울은로초등학교,서울특별시 동작구 서달로 115,37.50339298,126.9597784
7031156.0,서울은명초등학교,서울특별시 은평구 은평로4길 21-9,37.59767912,126.9182757
7031232.0,서울은빛초등학교,서울특별시 은평구 진관3로 73-17,37.64268286,126.9187305
7081473.0,서울은정초등학교,서울특별시 양천구 목동남로 85,37.51114164,126.8671804
7031157.0,서울은진초등학교,서울특별시 은평구 진관1로 21-20,37.63304404,126.920996
7132116.0,서울은천초등학교,서울특별시 관악구 은천로 69,37.4865852,126.9426791
7031158.0,서울은평초등학교,서울특별시 은평구 은평로 239,37.60230404,126.9340336
7051153.0,서울을지초등학교,서울특별시 노원구 중계로 239,37.65058742,127.0733504
7134108.0,서울응봉초등학교,서울특별시 성동구 독서당로62길 28,37.55025339,127.0338297
7031159.0,서울응암초등학교,서울특별시 은평구 가좌로6길 20,37.58875319,126.9216161
7011486.0,서울의료보건고등학교,서울특별시 중구 만리재로37길 30,37.55730142,126.9667204
7021105.0,서울이문초등학교,서울특별시 동대문구 신이문로 16,37.60189649,127.064885
7091413.0,서울이수초등학교,서울특별시 서초구 방배천로4길 23,37.47818874,126.9840588
7061077.0,서울이태원초등학교,서울특별시 용산구 녹사평대로40길 19,37.53647771,126.9876727
7011498.0,서울인공지능고등학교,서울특별시 송파구 양산로 21,37.49164824,127.1420854
7121325.0,서울인수초등학교,서울특별시 강북구 인수봉로 269,37.64305053,127.0091358
7031160.0,서울인왕초등학교,서울특별시 서대문구 세무서길 33-9,37.59021988,126.9448045
7132117.0,서울인헌초등학교,서울특별시 관악구 낙성대로 23,37.47677535,126.9598758
7010842.0,서울일본인학교,서울특별시 마포구 월드컵북로62길 11,37.58381151,126.884431
7121326.0,서울일신초등학교,서울특별시 성북구 월곡로 74,37.59881357,127.0401781
7091414.0,서울일원초등학교,서울특별시 강남구 영동대로4길 20,37.48981271,127.0761419
7091469.0,서울자곡초등학교,서울특별시 강남구 자곡로 150,37.47204936,127.0994826
7134109.0,서울자양초등학교,서울특별시 광진구 아차산로44길 26,37.53683789,127.0801077
7051154.0,서울자운초등학교,서울특별시 도봉구 마들로13길 166,37.65805568,127.0470176
7130150.0,서울잠동초등학교,서울특별시 송파구 올림픽로35길 122,37.51836408,127.0999979
7130151.0,서울잠신초등학교,서울특별시 송파구 잠실로 32,37.51414815,127.0879435
7130152.0,서울잠실초등학교,서울특별시 송파구 올림픽로35길 20,37.52014104,127.1107998
7091415.0,서울잠원초등학교,서울특별시 서초구 신반포로16길 15-25,37.50185909,126.9983875
7130153.0,서울잠일초등학교,서울특별시 송파구 올림픽로 95,37.51474166,127.0816362
7130154.0,서울잠전초등학교,서울특별시 송파구 올림픽로12길 51,37.50733493,127.0838644
7130155.0,서울잠현초등학교,서울특별시 송파구 올림픽로37길 109,37.52258587,127.1047228
7121327.0,서울장곡초등학교,서울특별시 성북구 장월로23길 16,37.61686002,127.0481512
7081474.0,서울장수초등학교,서울특별시 양천구 신정로13가길 30,37.5129972,126.8451597
7134110.0,서울장안초등학교,서울특별시 광진구 군자로 74,37.54987645,127.0724025
7121328.0,서울장월초등학교,서울특별시 성북구 한천로101길 66,37.62192922,127.0473205
7121329.0,서울장위초등학교,서울특별시 성북구 장월로8가길 41,37.61144251,127.0500064
7061078.0,서울장충초등학교,서울특별시 중구 청구로17길 40,37.55997122,127.0117048
7021106.0,서울장평초등학교,서울특별시 동대문구 답십리로,37.57287069,127.0589583
7061079.0,서울재동초등학교,서울특별시 종로구 북촌로4길 7,37.57994157,126.9855017
7021107.0,서울전곡초등학교,서울특별시 동대문구 전농로 172,37.58070429,127.0560124
7021108.0,서울전농초등학교,서울특별시 동대문구 사가정로 66,37.57473031,127.0543331
7021109.0,서울전동초등학교,서울특별시 동대문구 전농로16길 61,37.57908329,127.0608053
7081475.0,서울정곡초등학교,서울특별시 강서구 방화대로50길 22,37.5769597,126.8189328
7121330.0,서울정덕초등학교,서울특별시 성북구 아리랑로 63,37.59823995,127.0134213
7121331.0,서울정릉초등학교,서울특별시 성북구 솔샘로25가길 8,37.61979153,127.0055327
7081476.0,서울정목초등학교,서울특별시 양천구 목동중앙로3길 30-10,37.53652885,126.8700491
7010457.0,서울정문학교,서울특별시 관악구 난향3길 31,37.46171259,126.9169516
7010533.0,서울정민학교,서울특별시 노원구 공릉로58길 24,37.63389599,127.0731666
7121332.0,서울정수초등학교,서울특별시 성북구 정릉로24길 58,37.60377489,127.0077189
7041160.0,서울정심초등학교,서울특별시 금천구 독산로78다길 89,37.47198268,126.9081865
7010520.0,서울정애학교,서울특별시 강남구 봉은사로81길 16,37.51432622,127.0544003
7010521.0,서울정인학교,서울특별시 강북구 인수봉로 119-20,37.63095681,127.0119238
7010456.0,서울정진학교,서울특별시 구로구 부일로9길 158,37.49881449,126.8207519
7011513.0,서울정화고등학교,서울특별시 동대문구 홍릉로15길 50,37.586048641672,127.041070321981
7132118.0,서울조원초등학교,서울특별시 관악구 조원로 67,37.48412777,126.9095056
7021110.0,서울종암초등학교,서울특별시 동대문구 무학로44길 25,37.58230741,127.0318564
7051155.0,서울중계초등학교,서울특별시 노원구 한글비석로19길 39,37.65786223,127.0733483
7021111.0,서울중곡초등학교,서울특별시 중랑구 면목로23길 20,37.57489173,127.083439
7134111.0,서울중광초등학교,서울특별시 광진구 긴고랑로13길 59,37.56517298,127.0825123
7130156.0,서울중대초등학교,서울특별시 송파구 송파대로36길 8,37.4998119,127.1136055
7031161.0,서울중동초등학교,서울특별시 마포구 월드컵북로 152,37.56644584,126.9117804
7021112.0,서울중랑초등학교,서울특별시 중랑구 봉우재로6길 26,37.58966246,127.0755037
7134112.0,서울중마초등학교,서울특별시 광진구 동일로72길 43,37.56611507,127.0800237
7021113.0,서울중목초등학교,서울특별시 중랑구 동일로 665,37.59003683,127.0792007
7051156.0,서울중원초등학교,서울특별시 노원구 섬밭로 316,37.64396628,127.063052
7051157.0,서울중평초등학교,서울특별시 노원구 섬밭로 241,37.63725088,127.0637316
7051158.0,서울중현초등학교,서울특별시 노원구 섬밭로 181,37.63225517,127.0660566
7021114.0,서울중화초등학교,서울특별시 중랑구 신내로7가길 22,37.60292163,127.094065
7021115.0,서울중흥초등학교,서울특별시 중랑구 봉화산로 82,37.60140972,127.0838491
7031162.0,서울증산초등학교,서울특별시 은평구 증산서길 61,37.58256527,126.9042764
7081477.0,서울지향초등학교,서울특별시 양천구 신정로11길 74,37.51283768,126.8370238
7031163.0,서울진관초등학교,서울특별시 은평구 진관4로 78-16,37.64541986,126.9290525
7051159.0,서울창경초등학교,서울특별시 도봉구 도봉로129길 54,37.65660218,127.0346025
7051160.0,서울창도초등학교,서울특별시 도봉구 방학로 32-28,37.66413487,127.048784
7051161.0,서울창동초등학교,서울특별시 도봉구 해등로16길 81,37.65536304,127.0448329
7051162.0,서울창림초등학교,서울특별시 도봉구 덕릉로63길 46,37.64323708,127.0416041
7031164.0,서울창서초등학교,서울특별시 서대문구 연세로5나길 30-3,37.55814305,126.9334809
7061080.0,서울창신초등학교,서울특별시 종로구 지봉로 73,37.57621147,127.0142937
7051163.0,서울창원초등학교,서울특별시 도봉구 해등로 103,37.65264409,127.0399799
7051164.0,서울창일초등학교,서울특별시 도봉구 노해로66길 84,37.64765764,127.0476263
7031165.0,서울창천초등학교,서울특별시 마포구 백범로1길 56,37.5549178201995,126.939295148137
7130157.0,서울천동초등학교,서울특별시 강동구 성안로 200,37.5410159,127.1378287
7041209.0,서울천왕초등학교,서울특별시 구로구 천왕로1길 11,37.48141248,126.8369474
7041254.0,서울천이초등학교,서울특별시 구로구 오류로 30,37.48636795,126.8399921
7130158.0,서울천일초등학교,서울특별시 강동구 구천면로 266,37.54436122,127.1334367
7130159.0,서울천호초등학교,서울특별시 강동구 구천면로 310-11,37.54771897,127.1365923
7051165.0,서울청계초등학교,서울특별시 노원구 공릉로 431,37.64498036,127.0658175
7061081.0,서울청구초등학교,서울특별시 중구 다산로 170,37.55911668,127.0137244
7091416.0,서울청담초등학교,서울특별시 강남구 압구정로71길 9,37.52828187,127.045153
7121333.0,서울청덕초등학교,서울특별시 성북구 정릉로9라길 11,37.61203289,127.0003334
7021116.0,서울청량초등학교,서울특별시 동대문구 회기로25길 31,37.5923094,127.0559085
7132119.0,서울청룡초등학교,서울특별시 관악구 관악로5길 61,37.47672527,126.9512846
7061082.0,서울청운초등학교,서울특별시 종로구 자하문로 105,37.58580573,126.9692947
7061083.0,서울청파초등학교,서울특별시 용산구 효창원로 228,37.5473049,126.9635439
7010086.0,서울체육고등학교,서울특별시 송파구 강동대로 232,37.5223303821085,127.129822552593
7130185.0,서울체육중학교,서울특별시 송파구 강동대로 232,37.52233038,127.1298226
7051166.0,서울초당초등학교,서울특별시 도봉구 해등로32길 11,37.65862783,127.0219562
7061084.0,서울충무초등학교,서울 중구 퇴계로50길 13,37.56194948,127.0012351
7081478.0,서울치현초등학교,서울특별시 강서구 방화대로47길 43,37.57591915,126.8146456
7011213.0,서울컨벤션고등학교,서울특별시 강동구 동남로 964,37.55928456,127.1582159
7041161.0,서울탑동초등학교,서울특별시 금천구 탑골로 47-3,37.45232267,126.9145254
7081479.0,서울탑산초등학교,서울특별시 강서구 허준로 109,37.56700477,126.852594
7051167.0,서울태랑초등학교,서울특별시 노원구 화랑로51나길 31,37.62625086,127.0909151
7051168.0,서울태릉초등학교,서울특별시 노원구 노원로1길 36,37.62287979,127.084782
7130160.0,서울토성초등학교,서울특별시 송파구 풍성로20길 44,37.53189633,127.1157724
7130161.0,서울평화초등학교,서울특별시 송파구 송파대로26길 22,37.49161834,127.1227005
7091417.0,서울포이초등학교,서울특별시 강남구 개포로22길 87,37.47581662,127.0520457
7130162.0,서울풍납초등학교,서울특별시 송파구 풍성로 43,37.53529406,127.1175324
7130163.0,서울풍성초등학교,서울특별시 송파구 강동대로2길 13,37.52631188,127.1134927
7010843.0,서울프랑스학교,서울특별시 서초구 서래로 7,37.49582982,126.9978408
7041266.0,서울하늘숲초등학교,서울특별시 구로구 오리로 1106,37.48415943,126.841482
7031231.0,서울하늘초등학교,서울특별시 마포구 월드컵북로 502-14,37.58580609,126.8808572
7091418.0,서울학동초등학교,서울특별시 강남구 선릉로115길 42,37.51204595,127.0394356
7061085.0,서울한강초등학교,서울특별시 용산구 한강대로14길 9,37.52522617,126.9650994
7061086.0,서울한남초등학교,서울특별시 용산구 한남대로 112,37.53920365,127.0055998
7130164.0,서울한산초등학교,서울특별시 강동구 풍성로 261,37.52869458,127.1410769
7031166.0,서울한서초등학교,서울특별시 마포구 대흥로24바길 27,37.55364783,126.9497788
7051169.0,서울한천초등학교,서울특별시 노원구 마들로 45,37.62075017,127.0692581
7011311.0,서울항공비즈니스고등학교,서울특별시 강서구 방화대로34길 13,37.56921778,126.8170408
7041267.0,서울항동초등학교,서울특별시 구로구 연동로 178,37.47709214,126.8241895
7130255.0,서울해누리초등학교,서울특별시 송파구 송파대로37길 95,37.4984115921213,127.102124196858
7134113.0,서울행당초등학교,서울특별시 성동구 고산자로8길 6,37.55701913,127.0348734
7132120.0,서울행림초등학교,서울특별시 동작구 솔밭로 47,37.48281148,126.9649777
7134114.0,서울행현초등학교,서울특별시 성동구 행당로 95,37.55770899,127.029368
7061087.0,서울혜화초등학교,서울특별시 종로구 혜화로 32,37.58917277,126.999928
7021117.0,서울홍릉초등학교,서울특별시 동대문구 회기로 90,37.59068752,127.0477051
7031167.0,서울홍연초등학교,서울특별시 서대문구 백련사길 55,37.58211871,126.9306604
7031168.0,서울홍은초등학교,서울특별시 서대문구 세검정로 105,37.59754027,126.949458
7031169.0,서울홍제초등학교,서울특별시 서대문구 홍은중앙로 13,37.59348091,126.9453365
7021118.0,서울홍파초등학교,서울특별시 동대문구 고산자로 518,37.58612038,127.039415
7121334.0,서울화계초등학교,서울특별시 강북구 솔매로50가길 25,37.62388498,127.0297162
7081480.0,서울화곡초등학교,서울특별시 강서구 초록마을로 28,37.54366962,126.8464717
7081481.0,서울화일초등학교,서울특별시 강서구 까치산로10길 70,37.54071203,126.8474708
7011462.0,서울효정학교,서울특별시 강북구 삼양로63길 33,37.62712954,127.0162222
7061088.0,서울효제초등학교,서울특별시 종로구 대학로 12,37.57271796,127.0035154
7061089.0,서울후암초등학교,서울특별시 용산구 두텁바위로 140,37.55136541,126.9817243
7021119.0,서울휘경초등학교,서울특별시 동대문구 망우로6길 48,37.58567541,127.0579169
7021120.0,서울휘봉초등학교,서울특별시 동대문구 장안벚꽃로 309,37.58567641,127.0700416
7132121.0,서울흑석초등학교,서울특별시 동작구 현충로 87,37.50829705,126.9651492
7061090.0,서울흥인초등학교,서울특별시 중구 청구로6길 11,37.56087001,127.0145555
BE_LiST23-0037,서일대학교,서울 중랑구 서일대학길 22(면목동 49-3) 서일대학교,37.6065432383919,127.092820287004
7011491.0,서일문화예술고등학교,서울특별시 종로구 지봉로17길 49,37.5793645,127.0127863
7091433.0,서일중학교,서울특별시 서초구 서운로21길 2,37.49852986,127.0232207
7010087.0,서초고등학교,서울특별시 서초구 반포대로27길 29,37.48961169,127.0053782
7011208.0,서초문화예술정보학교,서울특별시 서초구 남부순환로347길 69,37.48806647,127.0299765
7091434.0,서초중학교,서울특별시 서초구 반포대로13길 48,37.48546798,127.0092308
7010088.0,석관고등학교,서울특별시 성북구 한천로70길 30,37.60958929,127.0667176
7121348.0,석관중학교,서울특별시 성북구 한천로 526,37.60814014,127.0667131
7130186.0,석촌중학교,서울특별시 송파구 송이로15길 13,37.50145499,127.1211174
7010189.0,선덕고등학교,서울특별시 도봉구 시루봉로 53,37.6562750160952,127.026703057445
7051190.0,선덕중학교,서울특별시 도봉구 시루봉로 53,37.65627502,127.0267031
7010536.0,선린인터넷고등학교,서울특별시 용산구 원효로97길 33-4,37.5427698351486,126.966038693159
7061105.0,선린중학교,서울특별시 용산구 원효로97길 33-4,37.54276984,126.9660387
7010984.0,선사고등학교,서울특별시 강동구 고덕로25길 17,37.55631588,127.1357756
7010734.0,선유고등학교,서울특별시 영등포구 선유로 227,37.53390162,126.8948507
7041180.0,선유중학교,서울특별시 영등포구 선유로 213,37.53328647,126.8943007
7011508.0,선일빅데이터고등학교,서울특별시 은평구 갈현로29길 27,37.6203042094228,126.911993073275
7010190.0,선일여자고등학교,서울특별시 은평구 갈현로29길 27,37.6203042094228,126.911993073275
7031192.0,선일여자중학교,서울특별시 은평구 갈현로29길 27,37.62030421,126.9119931
7031170.0,선일초등학교,서울특별시 은평구 갈현로29길 27,37.6203042094228,126.911993073275
7010191.0,선정고등학교,서울특별시 은평구 서오릉로20길 19,37.6187045126614,126.909031611714
7011315.0,선정국제관광고등학교,서울특별시 은평구 서오릉로20길 19,37.6187045126614,126.909031611714
7031193.0,선정중학교,서울특별시 은평구 서오릉로20길 19,37.61870451,126.9090316
7010192.0,선화예술고등학교,서울특별시 광진구 천호대로 664,37.5509798002896,127.087095159462
7134155.0,선화예술중학교,서울특별시 광진구 천호대로 664,37.5509798,127.0870952
BE_LiST23-0038,성공회대학교,서울 구로구 항동 성공회대학교,37.4801853131196,126.823409784343
BE_LiST23-0039,성균관대학교,서울 종로구 명륜동3가 성균관대학교,37.5904163009275,126.997842699531
7010193.0,성남고등학교,서울특별시 동작구 대방동길 74,37.5052815748623,126.926615278225
7132146.0,성남중학교,서울특별시 동작구 대방동길 74,37.50528157,126.9266153
7130187.0,성내중학교,서울특별시 강동구 성안로7길 36,37.52906191,127.1291173
7011179.0,성덕고등학교,서울특별시 강동구 구천면로 396,37.5498545397762,127.141541303447
7130188.0,성덕여자중학교,서울특별시 강동구 구천면로 396,37.54985454,127.1415413
7010089.0,성동고등학교,서울특별시 중구 퇴계로90길 17,37.5641622,127.0223892
7010737.0,성동공업고등학교,서울특별시 중구 다산로 290,37.56936315,127.0172817
7010889.0,성동글로벌경영고등학교,서울특별시 중구 퇴계로 375,37.56585472,127.0135246
7134116.0,성동초등학교,서울특별시 광진구 자양로4길 63,37.53328137,127.089281
7010469.0,성베드로학교,서울특별시 구로구 연동로 320,37.4875236,126.8261635
7010194.0,성보고등학교,서울특별시 관악구 남부순환로156길 39,37.4807283676946,126.920957326353
7132147.0,성보중학교,서울특별시 관악구 남부순환로156길 39,37.48072837,126.9209573
7031194.0,성사중학교,서울특별시 마포구 모래내로9길 16,37.5680911,126.912683
7031195.0,성산중학교,서울특별시 마포구 성지1길 32-13,37.54731637,126.9165628
7031196.0,성서중학교,서울특별시 마포구 성산로4길 42,37.5627873,126.9079522
7010886.0,성수고등학교,서울특별시 성동구 서울숲길 18,37.5473418143935,127.038253431317
7134134.0,성수중학교,서울특별시 성동구 서울숲길 18,37.54734181,127.0382534
7010195.0,성신여자고등학교,서울특별시 성북구 동소문로26가길 80,37.59428963,127.0224072
BE_LiST23-0040,성신여자대학교,서울 성북구 동선동3가 성신여자대학교,37.5946591280857,127.019888420673
7121363.0,성신여자중학교,서울특별시 성북구 북악산로 918,37.59462268,127.0231286
7121338.0,성신초등학교,서울특별시 성북구 북악산로 918,37.5946226781717,127.023128563512
7010196.0,성심여자고등학교,서울특별시 용산구 원효로19길 49,37.534209370461,126.95459335968
7061106.0,성심여자중학교,서울특별시 용산구 원효로19길 49,37.53420937,126.9545934
7010837.0,성암국제무역고등학교,서울특별시 강북구 도봉로29길 52,37.6204135324231,127.023905892641
7121364.0,성암여자중학교,서울특별시 강북구 도봉로29길 52,37.62041353,127.0239059
7134135.0,성원중학교,서울특별시 성동구 성덕정9가길 13,37.53945182,127.0513835
7021131.0,성일중학교,서울특별시 동대문구 왕산로23길 55,37.58185023,127.0338504
7081498.0,성재중학교,서울특별시 강서구 허준로 36,37.56950205,126.8454044
7091461.0,세곡중학교,서울특별시 강남구 자곡로 81,37.47196487,127.0925838
7011084.0,세그루패션디자인고등학교,서울특별시 도봉구 시루봉로 53,37.6562750160952,127.026703057445
7130189.0,세륜중학교,서울특별시 송파구 양재대로72길 41,37.50893314,127.1312464
7010537.0,세명컴퓨터고등학교,서울특별시 은평구 통일로92가길 33,37.62784757,126.9235455
7041181.0,세일중학교,서울특별시 금천구 시흥대로147길 34,37.47459441,126.8953689
7010816.0,세종과학고등학교,서울특별시 구로구 오리로21길 79,37.4975694,126.8273517
BE_LiST23-0041,세종대학교,서울 광진구 군자동 세종대학교,37.5554765598174,127.075350846159
7134117.0,세종초등학교,서울특별시 광진구 군자로 114,37.5530111,127.0728646
7010764.0,세현고등학교,서울특별시 강서구 허준로 227,37.56043066,126.8636211
7010197.0,세화고등학교,서울특별시 서초구 신반포로 56-7,37.5019964569165,126.994230013893
7010198.0,세화여자고등학교,서울특별시 서초구 신반포로 56-7,37.5019964569165,126.994230013893
7091452.0,세화여자중학교,서울특별시 서초구 신반포로 56-7,37.50199646,126.99423
7011540.0,솔샘고등학교,서울특별시 강북구 인수봉로 39,37.6237648476803,127.012068855446
7121380.0,솔샘중학교,서울특별시 강북구 인수봉로 39,37.62376485,127.0120689
7010199.0,송곡고등학교,서울특별시 중랑구 양원역로 50,37.60584544,127.1064637
7011085.0,송곡관광고등학교,서울특별시 중랑구 양원역로 67,37.6066890425626,127.105145451077
7010200.0,송곡여자고등학교,서울특별시 중랑구 양원역로 67,37.6066890425626,127.105145451077
7021132.0,송곡여자중학교,서울특별시 중랑구 양원역로 67,37.60668904,127.1051455
7130190.0,송례중학교,서울특별시 송파구 위례순환로 429,37.47783301,127.1397345
7081499.0,송정중학교,서울특별시 강서구 남부순환로 121,37.55315807,126.8152435
7130191.0,송파중학교,서울특별시 송파구 동남로 203,37.49592462,127.1299324
7010858.0,수도사랑의학교,서울특별시 종로구 사직로7길 17,37.57478221,126.9652331
7010090.0,수도여자고등학교,서울특별시 동작구 여의대방로10길 73,37.4928014552579,126.914907105304
7010389.0,수도여자고등학교부설방송통신고등학교,서울특별시 동작구 여의대방로10길 73,37.49280146,126.9149071
7010346.0,수도전기공업고등학교,서울특별시 강남구 개포로 410,37.48493754,127.0644787
7010559.0,수락고등학교,서울특별시 노원구 동일로245길 143,37.68290777,127.053571
7051191.0,수락중학교,서울특별시 노원구 동일로 1729,37.68314469,127.0548083
7010885.0,수명고등학교,서울특별시 강서구 수명로2길 15,37.54976186,126.8247662
7081500.0,수명중학교,서울특별시 강서구 수명로2길 16,37.54856699,126.8240596
7091435.0,수서중학교,서울특별시 강남구 광평로59길 57,37.49121758,127.1023555
7121349.0,수송중학교,서울특별시 강북구 한천로122길 21,37.63675993,127.0335855
7121350.0,수유중학교,서울특별시 강북구 인수봉로37길 40,37.63128942,127.0103197
7010201.0,숙명여자고등학교,서울특별시 강남구 남부순환로 2807,37.4914753613052,127.052612582715
BE_LiST23-0042,숙명여자대학교,서울 용산구 청파로47길 100 숙명여자대학교,37.5454740835781,126.965074376341
7091453.0,숙명여자중학교,서울특별시 강남구 남부순환로 2807,37.49147536,127.0526126
7121370.0,숭곡중학교,서울특별시 성북구 종암로 208,37.60847848,127.0312998
7010202.0,숭문고등학교,서울특별시 마포구 숭문길 99,37.5508909515504,126.945886852057
7031197.0,숭문중학교,서울특별시 마포구 숭문길 99,37.55089095,126.9458869
7010203.0,숭실고등학교,서울특별시 은평구 은평터널로7길 6,37.5932748232178,126.902403937432
BE_LiST23-0043,숭실대학교,서울 동작구 상도동 511 숭실대학교,37.4964019323152,126.956588222367
7031198.0,숭실중학교,서울특별시 은평구 은평터널로7길 6,37.59327482,126.9024039
7010204.0,숭의여자고등학교,서울특별시 동작구 여의대방로36길 79,37.507364139341,126.92924328346
BE_LiST23-0044,숭의여자대학교,서울특별시 중구 소파로2길 10(예장동),37.5578530747432,126.987481605528
7132148.0,숭의여자중학교,서울특별시 동작구 여의대방로36길 79,37.50736414,126.9292433
7061091.0,숭의초등학교,서울특별시 중구 소파로2길 10,37.55785307,126.9874816
7021133.0,숭인중학교,서울특별시 동대문구 천호대로47길 34,37.57384826,127.0438965
7041182.0,시흥중학교,서울특별시 금천구 시흥대로38길 60,37.44629507,126.9050823
7132149.0,신관중학교,서울특별시 관악구 신림로48길 17-16,37.48020125,126.9344522
7010205.0,신광여자고등학교,서울특별시 용산구 청파로 263,37.5428998795519,126.969447523164
7061108.0,신광여자중학교,서울특별시 용산구 청파로 263,37.54289988,126.9694475
7061092.0,신광초등학교,서울특별시 용산구 청파로 263,37.5428998795519,126.969447523164
7091436.0,신구중학교,서울특별시 강남구 압구정로36길 17,37.52744229,127.0316727
7041263.0,신길중학교,서울특별시 영등포구 신길로28길 43,37.50203454,126.9154355
7081501.0,신남중학교,서울특별시 양천구 중앙로29길 109,37.52077389,126.8478262
7010983.0,신도고등학교,서울특별시 은평구 통일로 961,37.62913251,126.9187486
7010884.0,신도림고등학교,서울특별시 구로구 경인로67길 159,37.51406292,126.8820838
7041183.0,신도림중학교,서울특별시 구로구 경인로63길 74,37.51074073,126.8848071
7051192.0,신도봉중학교,서울특별시 도봉구 도봉로115길 16,37.64959473,127.0332481
7031199.0,신도중학교,서울특별시 은평구 진관1로 77-30,37.63299312,126.9307131
7091437.0,신동중학교,서울특별시 서초구 나루터로 27,37.5169159,127.0129154
7010092.0,신림고등학교,서울특별시 관악구 문성로 119,37.47921049,126.9169672
7132150.0,신림중학교,서울특별시 관악구 신림로 40,37.47032734,126.946004
7130192.0,신명중학교,서울특별시 강동구 명일로24길 25,37.54181449,127.1492919
7010093.0,신목고등학교,서울특별시 양천구 안양천로 739,37.51290943,126.8736069
7081502.0,신목중학교,서울특별시 양천구 목동중앙로 88,37.53702399,126.8730725
7091438.0,신반포중학교,서울특별시 서초구 신반포로19길 26,37.50626532,126.9961242
7051193.0,신방학중학교,서울특별시 도봉구 시루봉로 156,37.66414043,127.028899
7091439.0,신사중학교,서울특별시 강남구 압구정로 123,37.52465157,127.0209188
7051194.0,신상중학교,서울특별시 노원구 동일로216길 42,37.65190308,127.0639869
7010765.0,신서고등학교,서울특별시 양천구 은행정로 42,37.52391432,126.8602096
7081503.0,신서중학교,서울특별시 양천구 중앙로 206,37.51596644,126.8550164
7031200.0,신수중학교,서울특별시 마포구 신수로 49,37.545923,126.934132
7130193.0,신암중학교,서울특별시 강동구 고덕로 65,37.55636169,127.1336043
7134136.0,신양중학교,서울특별시 광진구 자양강변길 73,37.53365227,127.0634253
7031201.0,신연중학교,서울특별시 서대문구 모래내로 408,37.58267678,126.940382
7081504.0,신원중학교,서울특별시 양천구 가로공원로55길 19,37.5370925,126.8248419
7081505.0,신월중학교,서울특별시 양천구 남부순환로29길 25,37.54046194,126.828389
7010206.0,신일고등학교,서울특별시 강북구 솔매로49길 20,37.627967222367,127.028403050284
7121365.0,신일중학교,서울특별시 강북구 솔매로49길 20,37.62796722,127.0284031
7081521.0,신정여자중학교,서울특별시 강서구 등촌로13아길 20,37.53841175,126.8571716
7011316.0,신진과학기술고등학교,서울특별시 은평구 은평로6길 16,37.59871385,126.9188364
7051195.0,신창중학교,서울 노원구 월계로45길 92,37.6285588,127.0474776
7130194.0,신천중학교,서울특별시 송파구 백제고분로 11,37.51625001,127.0792834
7010702.0,신현고등학교,서울특별시 중랑구 봉화산로 174,37.60524904,127.0929499
7021134.0,신현중학교,서울특별시 중랑구 봉화산로 162,37.60446458,127.0915328
7081506.0,신화중학교,서울특별시 양천구 남부순환로29길 35,37.5406111,126.8296004
7010853.0,아시아퍼시픽국제외국인학교,서울특별시 노원구 월계로45가길 57,37.63120699,127.0502962
7130195.0,아주중학교,서울특별시 송파구 올림픽로4길 69,37.50520449,127.0762989
7010566.0,아현산업정보학교,서울특별시 마포구 마포대로 249,37.55702637,126.9580228
7031202.0,아현중학교,서울특별시 마포구 마포대로 247,37.5564007056196,126.9565000215
7031272.0,아현중학교부설방송통신중학교,서울특별시 마포구 마포대로 247,37.55640071,126.9565
7041184.0,안천중학교,서울특별시 금천구 한내로 69-44,37.45952426,126.8874988
7010917.0,압구정고등학교,서울특별시 강남구 압구정로39길 20,37.53113395,127.0327116
7091440.0,압구정중학교,서울특별시 강남구 압구정로 225,37.53024224,127.0330027
7081507.0,양강중학교,서울특별시 양천구 중앙로 319,37.52491016,126.8496203
7081508.0,양동중학교,서울특별시 양천구 목동중앙북로 49,37.54836875,126.8687172
7081509.0,양서중학교,서울특별시 양천구 남부순환로 380,37.53267581,126.8289726
7010094.0,양재고등학교,서울특별시 서초구 남부순환로346길 9,37.48242164,127.0320796
7010208.0,양정고등학교,서울특별시 양천구 안양천로 1039,37.5353922607054,126.887734285049
7081522.0,양정중학교,서울특별시 양천구 안양천로 1039,37.53539226,126.8877343
7134137.0,양진중학교,서울특별시 광진구 워커힐로 32,37.54457517,127.0983114
7010209.0,양천고등학교,서울특별시 양천구 신정로14길 13,37.5083206,126.8452028
7081510.0,양천중학교,서울특별시 양천구 지양로7길 32,37.51900116,126.8305508
7041185.0,양화중학교,서울특별시 영등포구 당산로 56,37.51954792,126.8959408
7010095.0,언남고등학교,서울 서초구 동산로13길 35,37.47233002,127.0430052
7091441.0,언남중학교,서울특별시 서초구 동산로 55,37.47230262,127.0437571
7091442.0,언북중학교,서울특별시 강남구 도산대로38길 27,37.51941115,127.0334905
7091443.0,언주중학교,서울특별시 강남구 선릉로116길 57,37.51465316,127.0466832
7010966.0,여명학교,서울특별시 중구 소파로 99,37.5569031111925,126.985536502926
7081544.0,여명학교(중),서울특별시 중구 소파로 99,37.55690311,126.9855365
7010096.0,여의도고등학교,서울특별시 영등포구 국제금융로7길 37,37.52505101,126.9342192
7010097.0,여의도여자고등학교,서울특별시 영등포구 국제금융로7가길 13,37.52295392,126.9348574
7041186.0,여의도중학교,서울특별시 영등포구 국제금융로7길 46,37.5239802,126.9357531
7091444.0,역삼중학교,서울특별시 강남구 도곡로43길 10,37.49592949,127.0486129
7031203.0,연북중학교,서울특별시 서대문구 연희로36길 32,37.57755329,126.9382954
7031204.0,연서중학교,서울특별시 은평구 증산서길 125-6,37.58701931,126.9092766
BE_LiST23-0045,연세대학교,서울 서대문구 신촌동 연세대학교,37.5651616940519,126.93927687604
7010859.0,연세대학교재활학교,서울특별시 서대문구 연세로 50,37.56605084,126.9439162
7031205.0,연신중학교,서울특별시 은평구 연서로33길 16-32,37.62353926,126.9242879
7031206.0,연천중학교,서울특별시 은평구 연서로41길 30,37.62754521,126.9258198
7031207.0,연희중학교,서울특별시 서대문구 증가로 170,37.57958728,126.9187918
7081511.0,염경중학교,서울특별시 강서구 양천로69길 35,37.55453781,126.8705292
7010594.0,염광고등학교,서울특별시 노원구 월계로45가길 9,37.6302844506448,127.049264552091
7011568.0,염광메디텍고등학교,서울특별시 노원구 월계로45가길 9,37.6302844506448,127.049264552091
7051196.0,염광중학교,서울특별시 노원구 월계로45가길 9,37.63028445,127.0492646
7081512.0,염창중학교,서울특별시 강서구 양천로67가길 83,37.55426407,126.8717473
7041187.0,영남중학교,서울특별시 영등포구 대림로31나길 17,37.49787218,126.8958365
7081523.0,영도중학교,서울특별시 양천구 목동중앙남로 27,37.53631557,126.8657711
7010212.0,영동고등학교,서울특별시 강남구 선릉로 742,37.52138901,127.0437393
7010712.0,영동일고등학교,서울특별시 송파구 석촌호수로 93,37.50997465,127.0894437
7091445.0,영동중학교,서울특별시 서초구 성촌길 14,37.46598629,127.0251407
7010098.0,영등포고등학교,서울특별시 동작구 등용로8길 5,37.5080854131193,126.933143709837
7010390.0,영등포고등학교부설방송통신고등학교,서울특별시 동작구 등용로8길 5,37.5080854131193,126.933143709837
7010356.0,영등포공업고등학교,서울특별시 강서구 허준로5길 15,37.56983562,126.8500283
7010099.0,영등포여자고등학교,서울특별시 영등포구 영등포로62길 13,37.51538845,126.9153563
7132151.0,영등포중학교,서울특별시 동작구 등용로8길 5,37.50808541,126.9331437
7010214.0,영락고등학교,서울특별시 관악구 청룡16길 25,37.476541242971,126.945416499639
7011482.0,영락의료과학고등학교,서울특별시 관악구 청룡16길 25,37.47654124,126.9454165
7031208.0,영락중학교,서울특별시 은평구 백련산로 134-6,37.5969603,126.9251803
7021135.0,영란여자중학교,서울특별시 중랑구 망우로73길 56,37.6031324,127.1053324
7041188.0,영림중학교,서울특별시 구로구 가마산로27길 17,37.49722811,126.8907179
7041189.0,영서중학교,서울특별시 구로구 도림로20길 35,37.48975239,126.8949101
7011088.0,영신간호비즈니스고등학교,서울특별시 노원구 중계로16나길 13,37.65254851,127.0835087
7010100.0,영신고등학교,서울 영등포구 대방천로14길 18,37.49810094,126.909739
7010215.0,영신여자고등학교,서울특별시 노원구 중계로16나길 13,37.6525485061054,127.08350874514
7041190.0,영원중학교,서울특별시 영등포구 영등포로62길 31,37.51497419,126.9136469
7010216.0,영일고등학교,서울특별시 강서구 등촌로51가길 26,37.54728726,126.8620589
7010217.0,영파여자고등학교,서울특별시 송파구 올림픽로 565,37.5327371486645,127.119740221132
7130196.0,영파여자중학교,서울특별시 송파구 올림픽로 565,37.53273715,127.1197402
7010218.0,영훈고등학교,서울특별시 강북구 도봉로13가길 19,37.6146818749027,127.02809331872
7121369.0,영훈국제중학교,서울특별시 강북구 도봉로13가길 19,37.61468187,127.0280933
7121339.0,영훈초등학교,서울특별시 강북구 도봉로13가길 19,37.6146818749027,127.02809331872
7011184.0,예림디자인고등학교,서울특별시 구로구 오리로21길 2,37.50035507,126.827683
7061109.0,예원학교,서울특별시 중구 정동길 25,37.56702326,126.9715427
7010810.0,예일디자인고등학교,서울특별시 은평구 연서로 117,37.6109458980893,126.914792838283
7010219.0,예일여자고등학교,서울특별시 은평구 연서로 117,37.6109458980893,126.914792838283
7031209.0,예일여자중학교,서울특별시 은평구 연서로 117,37.6109459,126.9147928
7031172.0,예일초등학교,서울특별시 은평구 연서로 117,37.6109458980893,126.914792838283
7010101.0,오금고등학교,서울특별시 송파구 중대로 247,37.50453217,127.128969
7130197.0,오금중학교,서울특별시 송파구 오금로35길 20,37.5052111,127.1291121
7041191.0,오남중학교,서울특별시 구로구 오리로9길 25,37.48705969,126.837249
7011310.0,오디세이학교,서울특별시 종로구 종로58길 30,37.5721095475785,127.01741265638
7010544.0,오류고등학교,서울특별시 구로구 오리로21길 2,37.5003550678039,126.827683012604
7041192.0,오류중학교,서울특별시 구로구 고척로27바길 19,37.50772919,126.846524
7130198.0,오륜중학교,서울특별시 송파구 양재대로 1242,37.51629477,127.1385222
7010220.0,오산고등학교,서울특별시 용산구 보광로7길 17,37.5235805097988,127.000887240982
7061110.0,오산중학교,서울특별시 용산구 보광로7길 17,37.52358051,127.0008872
7130199.0,오주중학교,서울특별시 송파구 동남로 281,37.50148425,127.1365065
7134138.0,옥정중학교,서울특별시 성동구 한림말길 11,37.54167037,127.0129832
7051197.0,온곡중학교,서울특별시 노원구 노원로 492,37.66058142,127.0643327
7061111.0,용강중학교,서울특별시 용산구 이촌로65가길 91,37.52157693,126.9754853
7134139.0,용곡중학교,서울특별시 광진구 용마산로22길 76,37.56583399,127.0892753
7021136.0,용마중학교,서울특별시 중랑구 면목로28길 18,37.57450911,127.0862674
7010221.0,용문고등학교,서울특별시 성북구 고려대로17가길 46,37.5886903262008,127.024660795253
7121351.0,용문중학교,서울특별시 성북구 고려대로17가길 46,37.58869033,127.0246608
7010103.0,용산고등학교,서울특별시 용산구 두텁바위로 60,37.54586738,126.9803277
7061112.0,용산중학교,서울특별시 용산구 두텁바위로 74,37.54601254,126.9809129
7011495.0,용산철도고등학교,서울특별시 용산구 서빙고로 24,37.52434167,126.9673581
7010222.0,용화여자고등학교,서울특별시 노원구 동일로 1461,37.65913138,127.0582807
7010223.0,우신고등학교,서울특별시 구로구 부일로 917,37.4949023087281,126.826353599765
7041193.0,우신중학교,서울특별시 구로구 부일로 917,37.49490231,126.8263536
7121340.0,우촌초등학교,서울특별시 성북구 성북로4길 52-1,37.59564089,127.0114006
7061093.0,운현초등학교,서울특별시 종로구 삼일대로 460,37.57666729,126.9881986
7010805.0,원묵고등학교,서울특별시 중랑구 숙선옹주로 82,37.61523231,127.0855078
7021137.0,원묵중학교,서울특별시 중랑구 신내로23길 57,37.61784163,127.0845539
7091446.0,원촌중학교,서울특별시 서초구 사평대로45길 10,37.5063251,127.0146997
7010735.0,월계고등학교,서울특별시 노원구 초안산로5길 66,37.63167341,127.0483883
7051198.0,월계중학교,서울특별시 노원구 월계로45가길 54,37.63113114,127.0523203
7121352.0,월곡중학교,서울특별시 성북구 장월로 6,37.60698163,127.0482588
7081513.0,월촌중학교,서울특별시 양천구 목동서로 31,37.53706518,126.8827588
7130271.0,위례솔중학교,서울특별시 송파구 위례북로2길 10,37.48725911,127.150355
7081483.0,유석초등학교,서울특별시 강서구 화곡로69길 9,37.56080181,126.8537794
7010365.0,유한공업고등학교,서울특별시 구로구 경인로 8,37.4879766,126.8232907
7041194.0,윤중중학교,서울특별시 영등포구 여의동로3길 3,37.51893021,126.9241232
7010226.0,은광여자고등학교,서울특별시 강남구 남부순환로359길 36,37.4883484513575,127.035021467585
7021121.0,은석초등학교,서울특별시 동대문구 장안벚꽃로 205,37.57845027,127.0760031
7091454.0,은성중학교,서울특별시 강남구 남부순환로359길 36,37.48834845,127.0350215
7010882.0,은평고등학교,서울특별시 은평구 갈현로15길 47,37.60915205,126.905808
7010583.0,은평대영학교,서울특별시 은평구 갈현로11길 30,37.60561276,126.9063428
7010962.0,은평메디텍고등학교,서울특별시 은평구 진관2로 57-57,37.63534652,126.9297048
7011207.0,은평문화예술정보학교,서울특별시 은평구 가좌로 208,37.58952241,126.9192655
7031210.0,은평중학교,서울특별시 은평구 갈현로17나길 12-1,37.61063518,126.9083472
7051199.0,을지중학교,서울특별시 노원구 덕릉로 580,37.64978791,127.0717084
7091447.0,이수중학교,서울특별시 서초구 방배중앙로3길 32,37.48063003,126.989859
7010227.0,이화여자고등학교,서울특별시 중구 정동길,37.56655471,126.9710372
BE_LiST23-0046,이화여자대학교,서울 서대문구 대현동 11-1 이화여자대학교,37.5631740311778,126.947807434256
7010747.0,이화여자대학교병설미디어고등학교,서울특별시 중랑구 망우로73길 56,37.6031323992803,127.105332396209
7031211.0,이화여자대학교사범대학부속이화·금란중학교,서울특별시 서대문구 성산로 520,37.56263931,126.9444886
7010547.0,이화여자대학교사범대학부속이화금란고등학교,서울특별시 서대문구 성산로 560,37.56638886,126.9473557
7031174.0,이화여자대학교사범대학부속초등학교,서울특별시 서대문구 성산로 512-39,37.56115022,126.9427751
7010230.0,이화여자외국어고등학교,서울특별시 중구 통일로4길 30,37.56557732,126.9696417
7011493.0,인덕과학기술고등학교,서울특별시 노원구 초안산로 12,37.63025145,127.0544486
BE_LiST23-0047,인덕대학교,서울 노원구 초안산로 12,37.6302514486494,127.054448642206
7121353.0,인수중학교,서울특별시 강북구 인수봉로75길 10,37.64377191,127.0096671
7031212.0,인왕중학교,서울특별시 서대문구 세검정로4길,37.59217661,126.951676
7010231.0,인창고등학교,서울특별시 서대문구 경기대로 65,37.564885131451,126.964023197643
7031213.0,인창중학교,서울특별시 서대문구 경기대로 65,37.56488513,126.9640232
7010104.0,인헌고등학교,서울특별시 관악구 인헌9길 74,37.47231073,126.9704851
7132152.0,인헌중학교,서울특별시 관악구 인헌9길 35,37.47269621,126.9688402
7010370.0,일신여자상업고등학교,서울특별시 송파구 송파대로38길 8,37.5017941334924,127.114241325581
7130200.0,일신여자중학교,서울특별시 송파구 송파대로38길 8,37.50179413,127.1142413
7010105.0,자양고등학교,서울특별시 광진구 뚝섬로37길 28,37.53607797,127.0733395
7134140.0,자양중학교,서울특별시 광진구 뚝섬로41길 33,37.5357299,127.0743689
7010703.0,자운고등학교,서울특별시 도봉구 노해로69길 150,37.65904641,127.0506907
7010106.0,잠신고등학교,서울특별시 송파구 잠실로 24,37.51470129,127.088283
7130201.0,잠신중학교,서울특별시 송파구 잠실로 12,37.51608175,127.0882432
7010107.0,잠실고등학교,서울특별시 송파구 올림픽로33길 71,37.52293043,127.106515
7010232.0,잠실여자고등학교,서울특별시 송파구 송파대로38길 8,37.5017941334924,127.114241325581
7130202.0,잠실중학교,서울특별시 송파구 올림픽로35길 130,37.51734717,127.0997283
7011112.0,잠일고등학교,서울특별시 송파구 백제고분로 21,37.51455438,127.0823677
BE_LiST23-0048,장로회신학대학교,서울 광진구 광장로 5길 25-1(광장동) 장로회신학대학교,37.5486902335292,127.104573818024
7132153.0,장승중학교,서울특별시 동작구 장승배기로10가길 25,37.50314858,126.940834
7021138.0,장안중학교,서울특별시 중랑구 동일로 780,37.6005073,127.0813765
7061113.0,장원중학교,서울특별시 중구 동호로15길 93-34,37.55396452,127.0060429
7121354.0,장위중학교,서울특별시 성북구 장위로4길 70,37.61128177,127.0408746
7010233.0,장충고등학교,서울특별시 중구 동호로15길 93,37.5535149002283,127.006414953028
7061114.0,장충중학교,서울특별시 중구 동호로15길 93,37.5535149,127.006415
7021139.0,장평중학교,서울특별시 동대문구 답십리로72길 158,37.56685961,127.0704776
7010234.0,장훈고등학교,서울특별시 영등포구 영등포로64길 26,37.51334559,126.9162285
7010851.0,재한몽골학교,서울특별시 광진구 광장로1가길 13-10,37.54709344,127.1011043
7010235.0,재현고등학교,서울특별시 노원구 덕릉로82길 64,37.6612906377296,127.080799772038
7051200.0,재현중학교,서울특별시 노원구 덕릉로82길 64,37.66129064,127.0807998
BE_LiST23-0049,적십자간호대학,서울 종로구 경교장길8,37.5674160717181,126.966305052144
7021140.0,전농중학교,서울특별시 동대문구 사가정로13길 71,37.58204428,127.0592794
7021141.0,전동중학교,서울특별시 동대문구 장안벚꽃로 291,37.58619359,127.0709291
7021142.0,전일중학교,서울특별시 동대문구 사가정로13길 67,37.58250018,127.0583795
7010236.0,정신여자고등학교,서울특별시 송파구 올림픽로4길 16,37.5094538398143,127.073847329188
7130203.0,정신여자중학교,서울특별시 송파구 올림픽로4길 16,37.50945384,127.0738473
7031214.0,정원여자중학교,서울특별시 서대문구 연희로37안길 51,37.58537524,126.9334305
7010237.0,정의여자고등학교,서울특별시 도봉구 노해로49길 69,37.6533558400471,127.032427255133
7051201.0,정의여자중학교,서울특별시 도봉구 노해로49길 69,37.65335584,127.0324273
7021143.0,정화여자중학교,서울특별시 동대문구 홍릉로15길 50,37.58604864,127.0410703
7010567.0,종로산업정보학교,서울특별시 종로구 종로58길 28,37.57257125,127.0171887
7121355.0,종암중학교,서울특별시 성북구 종암로5길 80-17,37.5929706,127.0317476
7010472.0,주몽학교,서울특별시 강동구 상암로 369,37.54619875,127.1633757
7010108.0,중경고등학교,서울특별시 용산구 이촌로84길 34,37.5176804,126.9756383
7051202.0,중계중학교,서울특별시 노원구 덕릉로76길 23,37.65562691,127.0749004
7010238.0,중동고등학교,서울특별시 강남구 일원로 7,37.49371341,127.0806601
7091455.0,중동중학교,서울특별시 강남구 일원로8길 37,37.4885699,127.0786819
7021144.0,중랑중학교,서울특별시 중랑구 동일로140길 33,37.60535089,127.0807928
7010239.0,중산고등학교,서울특별시 강남구 일원로14길 22,37.48574293,127.0814285
7031215.0,중암중학교,서울특별시 마포구 월드컵북로38길 25,37.57241132,126.9033686
7010240.0,중앙고등학교,서울특별시 종로구 창덕궁길 164,37.5837882231459,126.987472622092
BE_LiST23-0050,중앙대학교 서울캠퍼스,서울 동작구 흑석로 84,37.5047267237807,126.953833907628
7010241.0,중앙대학교사범대학부속고등학교,서울특별시 강남구 선릉로 207,37.49184257,127.0516901
7132154.0,중앙대학교사범대학부속중학교,서울특별시 동작구 서달로 124,37.50362942,126.9617326
7132122.0,중앙대학교사범대학부속초등학교,서울특별시 동작구 서달로 135,37.50526855,126.9601623
7010243.0,중앙여자고등학교,서울특별시 서대문구 북아현로11가길 7,37.5631767195176,126.954059321222
7031216.0,중앙여자중학교,서울특별시 서대문구 북아현로11가길 7,37.56317672,126.9540593
7061115.0,중앙중학교,서울특별시 종로구 창덕궁길 164,37.58378822,126.9874726
7051203.0,중원중학교,서울특별시 노원구 공릉로 420,37.64423868,127.0680295
7051204.0,중평중학교,서울특별시 노원구 동일로203길 87,37.63697638,127.0623354
7010109.0,중화고등학교,서울특별시 중랑구 봉화산로27길 62,37.60481461,127.0836541
7021145.0,중화중학교,서울특별시 중랑구 용마산로 364,37.58450379,127.0945608
7031217.0,증산중학교,서울특별시 은평구 증산로5길 27-30,37.58381539,126.9049399
7010844.0,지구촌기독외국인학교,서울특별시 용산구 독서당로 115,37.53674266,127.0117766
7041214.0,지구촌학교,서울특별시 구로구 오리로 1189,37.4888597347494,126.835176855592
7041275.0,지구촌학교 고등학교,서울특별시 구로구 오리로 1189,37.48885973,126.8351769
7041274.0,지구촌학교 중학교,서울특별시 구로구 오리로 1189,37.4888597347494,126.835176855592
7010883.0,진관고등학교,서울특별시 은평구 진관4로 26,37.64333857,126.9243825
7031218.0,진관중학교,서울특별시 은평구 진관4로 36,37.64425564,126.9257277
7010244.0,진명여자고등학교,서울특별시 양천구 목동로 170,37.52408341,126.8654652
7010245.0,진선여자고등학교,서울특별시 강남구 선릉로85길 27,37.5023028920315,127.048286565491
7091456.0,진선여자중학교,서울특별시 강남구 선릉로85길 27,37.50230289,127.0482866
7010110.0,창덕여자고등학교,서울특별시 송파구 양재대로 1240,37.51627474,127.1402304
7061116.0,창덕여자중학교,서울특별시 중구 정동길 22,37.5664328,126.9692102
7010562.0,창동고등학교,서울특별시 도봉구 노해로62길 7,37.65103577,127.0388191
7051205.0,창동중학교,서울특별시 도봉구 방학로 32,37.66322957,127.0489975
7010246.0,창문여자고등학교,서울특별시 강북구 월계로 61,37.6134009168268,127.035828005248
7121366.0,창문여자중학교,서울특별시 강북구 월계로 61,37.61340092,127.035828
7051206.0,창북중학교,서울특별시 도봉구 노해로62길 33,37.64911577,127.0388329
7051207.0,창일중학교,서울특별시 도봉구 노해로66길 60,37.64898859,127.0464446
7031219.0,창천중학교,서울특별시 마포구 백범로1길 56,37.55491782,126.9392951
7041238.0,천왕중학교,서울특별시 구로구 천왕로 63,37.48265442,126.8373336
7130204.0,천일중학교,서울특별시 강동구 천중로 57,37.54584475,127.1281966
7130205.0,천호중학교,서울특별시 강동구 상암로 153,37.54651926,127.139698
7010112.0,청담고등학교,서울특별시 강남구 압구정로 419,37.52794736,127.0438666
7091448.0,청담중학교,서울특별시 강남구 압구정로61길 36,37.52865979,127.0448101
7010113.0,청량고등학교,서울특별시 동대문구 왕산로 303,37.588886,127.051311
7021146.0,청량중학교,서울특별시 동대문구 왕산로 301,37.58821921,127.0506225
7061117.0,청운중학교,서울특별시 종로구 창의문로 51,37.58917094,126.9710886
7010247.0,청원고등학교,서울특별시 노원구 한글비석로 506,37.6652515464657,127.062532889006
7010552.0,청원여자고등학교,서울특별시 노원구 한글비석로 506,37.6652515464657,127.062532889006
7051208.0,청원중학교,서울특별시 노원구 한글비석로 506,37.66525155,127.0625329
7051170.0,청원초등학교,서울특별시 노원구 한글비석로 506,37.6652515464657,127.062532889006
BE_LiST23-0051,총신대학교,서울 동작구 사당동 산31-3,37.4908791135567,126.967182104111
BE_LiST23-0052,추계예술대학교,서울 서대문구 북아현동 190-1 추계예술대학교,37.5627772025805,126.953331564253
7031175.0,추계초등학교,서울특별시 서대문구 북아현로11가길 7,37.5631767195176,126.954059321222
7010248.0,충암고등학교,서울특별시 은평구 가좌로5길 5,37.5846402882465,126.921809482886
7031220.0,충암중학교,서울특별시 은평구 가좌로5길 5,37.58464029,126.9218095
7031176.0,충암초등학교,서울특별시 은평구 가좌로5길 5,37.5846402882465,126.921809482886
7010854.0,코리아외국인학교,서울특별시 서초구 남부순환로364길 7-16,37.48468977,127.0410419
7051171.0,태강삼육초등학교,서울특별시 노원구 화랑로 815,37.643357369067,127.108850343184
7051209.0,태랑중학교,서울특별시 노원구 화랑로51나길 51,37.62696092,127.0908073
7010114.0,태릉고등학교,서울특별시 중랑구 신내로23길 36,37.61899254,127.0858198
7021147.0,태릉중학교,서울특별시 중랑구 공릉로2길 60-25,37.61253191,127.0834355
7130206.0,풍납중학교,서울특별시 송파구 올림픽로43길 20,37.52535051,127.1156283
7011457.0,풍문고등학교,서울특별시 강남구 자곡로 152,37.47133617,127.0999634
7130207.0,풍성중학교,서울특별시 송파구 강동대로2길 27,37.52527779,127.1131307
7051210.0,하계중학교,서울특별시 노원구 노원로 261-8,37.64136991,127.0723336
7010918.0,하나고등학교,서울특별시 은평구 연서로 535,37.64163759,126.9369302
7010852.0,하비에르국제학교,서울특별시 종로구 비봉길 23,37.6107365,126.9563721
7011120.0,학력인정 서울자동차고등학교,서울특별시 용산구 백범로45길 15,37.54148839,126.9585619
7041215.0,학력인정 서현초등학교,서울특별시 영등포구 도신로53길 18,37.51230578,126.9155196
7011138.0,학력인정 신동신정보산업고등학교(2년제),서울특별시 동작구 동작대로33마길 27-1,37.4907235731408,126.977927975527
7011118.0,학력인정 신동신중.정보산업고등학교,서울특별시 동작구 동작대로33마길 27-1,37.4907235731408,126.977927975527
7011139.0,학력인정 신동신중학교(2년제),서울특별시 동작구 동작대로33마길 27-1,37.49072357,126.977928
7011140.0,학력인정 일성여자고등학교(2년제),서울특별시 마포구 마포대로11다길 11-6,37.5501838418884,126.948491864665
7011141.0,학력인정 일성여자중학교(2년제),서울특별시 마포구 마포대로11다길 11-6,37.55018384,126.9484919
7011122.0,학력인정 정암미용고등학교(2년제),서울특별시 동대문구 왕산로 225,37.5821227,127.0472091
7011142.0,학력인정 진형고등학교(2년제),서울특별시 종로구 종로 386,37.5740805443826,127.020352393515
7011143.0,학력인정 진형중학교(2년제),서울특별시 종로구 종로 386,37.57408054,127.0203524
7011125.0,학력인정 청량정보고등학교,서울특별시 동대문구 답십리로15길 32,37.5777320687093,127.047655876816
7011150.0,학력인정 청량정보고등학교(2년제),서울특별시 동대문구 답십리로15길 32,37.57773207,127.0476559
7011144.0,학력인정 청암고등학교(2년제),서울특별시 노원구 중계로 244,37.6517772138584,127.073859531237
7011145.0,학력인정 청암중학교(2년제),서울특별시 노원구 중계로 244,37.65177721,127.0738595
7011148.0,학력인정 한림실업고등학교(2년제),서울특별시 송파구 충민로 172,37.4851088181199,127.133353538997
7011149.0,학력인정 한림연예예술고등학교,서울특별시 송파구 충민로 172,37.48510882,127.1333535
7011147.0,학력인정 한림중학교(2년제),서울특별시 송파구 충민로 172,37.4851088181199,127.133353538997
7011146.0,학력인정 한림초등학교(4년제),서울특별시 송파구 충민로6길 71,37.47960965,127.135612
7010250.0,한가람고등학교,서울특별시 양천구 목동서로 15,37.53746204,126.8840075
7010828.0,한강미디어고등학교,서울특별시 영등포구 선유로55길 22,37.53930105,126.897109
7061118.0,한강중학교,서울특별시 용산구 녹사평대로 73,37.52361192,126.9927909
7010251.0,한광고등학교,서울특별시 강서구 등촌로13길 110,37.53884371,126.8579393
7010473.0,한국구화학교,서울특별시 강동구 고덕로 295-59,37.55825782,127.1589948
BE_LiST23-0053,한국방송통신대학교,서울 종로구 동숭동 한국방송통신대학교,37.5813770980378,127.004872670199
7010252.0,한국삼육고등학교,서울특별시 노원구 화랑로 815,37.643357369067,127.108850343184
7051259.0,한국삼육중학교,서울특별시 노원구 화랑로 815,37.64335737,127.1088503
BE_LiST23-0054,한국성서대학교,서울 노원구 상계7동 한국성서대학교,37.6805128229615,127.089107001414
7010846.0,한국영등포화교소학교,서울특별시 영등포구 경인로88길 9,37.51319836,126.8997927
BE_LiST23-0055,한국예술종합학교,서울 성북구 석관동 ,37.6129860183722,127.0614007785
BE_LiST23-0056,한국외국어대학교,서울 동대문구 이문로 107,37.5982966771548,127.057942413722
7010847.0,한국외국인학교,서울특별시 강남구 개포로 408,37.48514627,127.0626824
1342102.0,한국우진학교,서울특별시 마포구 월드컵북로38길 21,37.57112292,126.9038429
7010474.0,한국육영학교,서울특별시 송파구 충민로6길 15,37.48207093,127.1327564
7010722.0,한국제과학교,서울특별시 영등포구 여의대방로61길 42,37.51596302,126.9220354
BE_LiST23-0057,한국체육대학교,서울 송파구 오륜동 한국체육대학교,37.5154162110562,127.134305677243
7010848.0,한국켄트외국인학교,서울특별시 광진구 자양로35길 13,37.54708842,127.0864327
BE_LiST23-0058,한국폴리텍 I 대학 서울강서캠퍼스,서울 강서구 화곡동 산60-1,37.5504023690235,126.843553181181
BE_LiST23-0059,한국폴리텍Ⅰ대학 서울정수캠퍼스,서울 용산구 보광로 73(보광동 238),37.5299749717494,126.996816950671
7010849.0,한국한성화교소학교,서울특별시 중구 명동2길 35,37.56222273,126.9837555
7010838.0,한국한성화교중고등학교,서울특별시 서대문구 연희로 176,37.57150361,126.9383783
7010578.0,한빛맹학교,서울특별시 강북구 삼양로73가길 47,37.62789211,127.0157138
7130208.0,한산중학교,서울특별시 강동구 풍성로 251,37.52890274,127.1403034
7010253.0,한서고등학교,서울특별시 강서구 양천로11길 47,37.5747927,126.8081439
7010254.0,한성고등학교,서울특별시 서대문구 북아현로1길 24,37.559096439531,126.954456481223
7010115.0,한성과학고등학교,서울특별시 서대문구 통일로 279-79,37.57543617,126.9523709
BE_LiST23-0060,한성대학교,서울 성북구 삼선동3가 389 한성대학교,37.5865085302362,127.013092803419
7010255.0,한성여자고등학교,서울특별시 성북구 삼선교로16길 117,37.5830649,127.0117427
7121367.0,한성여자중학교,서울특별시 성북구 삼선교로16길 118,37.5819996,127.0113127
7031221.0,한성중학교,서울특별시 서대문구 북아현로1길 24,37.55909644,126.9544565
7010911.0,한세사이버보안고등학교,서울특별시 마포구 마포대로11길 44-80,37.55173969,126.9521364
7051172.0,한신초등학교,서울특별시 도봉구 노해로49길 69,37.6533558400471,127.032427255133
7010377.0,한양공업고등학교,서울특별시 중구 을지로 299,37.5658716036039,127.011443307588
BE_LiST23-0061,한양대학교,서울특별시 성동구 왕십리로 222 ,37.5545035492027,127.046611216789
7010793.0,한양대학교사범대학부속고등학교,서울특별시 성동구 마조로 42,37.5619188387132,127.042324044658
7134141.0,한양대학교사범대학부속중학교,서울특별시 성동구 마조로 42,37.56191884,127.042324
BE_LiST23-0062,한양여자대학교,서울 성동구 행당동 살곶이길 200,37.5563428160975,127.041881433393
7061119.0,한양중학교,서울특별시 중구 을지로 299,37.5658716,127.0114433
7134118.0,한양초등학교,서울특별시 성동구 살곶이길 208,37.55762103,127.0502634
7010258.0,한영고등학교,서울특별시 강동구 동남로 832,37.5490844724681,127.156927612469
BE_LiST23-0063,한영신학대학교,서울 구로구 경인로 290-42  한영신학대학교,37.4965810660171,126.8512499816
7010259.0,한영외국어고등학교,서울특별시 강동구 동남로 832,37.5490844724681,127.156927612469
7130209.0,한영중학교,서울특별시 강동구 동남로 832,37.54908447,127.1569276
7041195.0,한울중학교,서울특별시 금천구 독산로50길 60,37.46240531,126.9071703
7051212.0,한천중학교,서울특별시 노원구 공릉로 265,37.63127216,127.0721178
7041262.0,항동중학교,서울특별시 구로구 연동로 239-2,37.48283808,126.8203721
7130256.0,해누리중학교,서울특별시 송파구 송파대로37길 95,37.49841159,127.1021242
7010811.0,해성국제컨벤션고등학교,서울특별시 동대문구 전농로20길 31,37.5818725994505,127.056976879173
7010818.0,해성여자고등학교,서울특별시 동대문구 전농로20길 31,37.5818726,127.0569769
7134142.0,행당중학교,서울특별시 성동구 왕십리로 189,37.55455404,127.0419634
7010260.0,현대고등학교,서울특별시 강남구 압구정로 127,37.5254805,127.0223773
7010261.0,혜성여자고등학교,서울특별시 노원구 노원로16길 2,37.64055021,127.0736197
7010262.0,혜원여자고등학교,서울특별시 중랑구 봉우재로58길 39,37.5932798745236,127.097042711299
7021148.0,혜원여자중학교,서울특별시 중랑구 봉우재로58길 39,37.59327987,127.0970427
7010116.0,혜화여자고등학교,서울특별시 강북구 인수봉로 127,37.63130842,127.013212
7031222.0,홍은중학교,서울특별시 서대문구 연희로41길 94,37.59189151,126.9357524
BE_LiST23-0064,홍익대학교,서울특별시 마포구 와우산로 94(상수동),37.5525245968145,126.9250355422
7010263.0,홍익대학교사범대학부속고등학교,서울특별시 성북구 성북로14가길 23,37.5936666161184,127.002804963597
7010264.0,홍익대학교사범대학부속여자고등학교,서울특별시 마포구 성미산로 51,37.559665162458,126.912928685692
7031223.0,홍익대학교사범대학부속여자중학교,서울특별시 마포구 성미산로 51,37.55966516,126.9129287
7121368.0,홍익대학교사범대학부속중학교,서울특별시 성북구 성북로14가길 23,37.59366662,127.002805
7031177.0,홍익대학교사범대학부속초등학교,서울특별시 마포구 성미산로 51,37.559665162458,126.912928685692
7011087.0,홍익디자인고등학교,서울특별시 마포구 성미산로 111,37.563510635781,126.919166278819
7121356.0,화계중학교,서울특별시 강북구 화계사길 63,37.63251806,127.0097091
7010265.0,화곡고등학교,서울특별시 강서구 강서로45길 69,37.54793611,126.8315357
7011089.0,화곡보건경영고등학교,서울특별시 강서구 강서로45길 70,37.5484055955739,126.832657307166
7081524.0,화곡중학교,서울특별시 강서구 강서로45길 70,37.5484056,126.8326573
7051173.0,화랑초등학교,서울특별시 노원구 화랑로 621,37.62738159,127.0916212
7081514.0,화원중학교,서울특별시 강서구 강서로17나길 86,37.53621409,126.8424135
7010266.0,환일고등학교,서울특별시 중구 환일길 47,37.5537559309443,126.962588449936
7061120.0,환일중학교,서울특별시 중구 환일길 47,37.55375593,126.9625884
7010766.0,효문고등학교,서울특별시 도봉구 우이천로 432,37.6526987118348,127.0184004627
7051213.0,효문중학교,서울특별시 도봉구 우이천로 432,37.65269871,127.0184005
7010267.0,휘경여자고등학교,서울특별시 동대문구 한천로 247,37.5819005156881,127.067434080061
7021149.0,휘경여자중학교,서울특별시 동대문구 한천로 247,37.58190052,127.0674341
7021150.0,휘경중학교,서울특별시 동대문구 망우로18나길 20,37.58709299,127.0617461
7010268.0,휘문고등학교,서울특별시 강남구 역삼로 541,37.5052894535671,127.061993880621
7091457.0,휘문중학교,서울특별시 강남구 역삼로 541,37.50528945,127.0619939
7011113.0,휘봉고등학교,서울특별시 동대문구 한천로 290,37.58637236,127.0689407
